airport,latitude,longitude,municipality,country,country_code,city,state,postal_code,calling_code,timezone
Ar Horqin Airport,43.87042,120.15958,Chifeng,China,CN-15,,内蒙古自治区,,86,Asia/Shanghai
Hongyuan Airport,32.53154,102.35224,Aba,China,CN-51,,四川省,,86,Asia/Shanghai
Alxa Left Banner Bayanhot Airport,38.74831,105.58858,Bayanhot,China,CN-15,,Enga,,675,Asia/Shanghai
Old Guangzhou Baiyun International Airport,23.184200286865234,113.26599884033205,Guangzhou,China,CN-44,南京市,江苏省,210012,86,Asia/Shanghai
Nanjing Air Base,31.998300552368164,118.81199645996094,Nanjing,China,CN-32,瓦房店市,辽宁省,,86,Asia/Shanghai
Laohutun Air Base,39.66999816894531,121.76599884033205,,China,CN-21,普兰店区,辽宁省,,86,Asia/Shanghai
Pulandian Air Base,39.45090103149414,122.01799774169922,,China,CN-21,,,,86,Asia/Shanghai
Tangshan Sannühe Airport,39.7178001404,118.00262451200001,Tangshan,China,CN-13,,北京市,102206,86,Asia/Shanghai
Beijing Shahezhen Air Base,40.14916610717773,116.3213882446289,Beijing,China,CN-11,,北京市,,86,Asia/Shanghai
Beijing Tongxian Air Base,39.81111145019531,116.70833587646484,Beijing,China,CN-11,群力乡,黑龙江省,150000,86,Asia/Shanghai
Wang Kang Airfield,45.666,126.5275,Harbin,China,CN-23,哈尔滨市,黑龙江省,150000,86,Asia/Shanghai
Shuang Yu Shu Airfield,45.66,126.7,Harbin,China,CN-23,,宁夏回族自治区,,86,Asia/Shanghai
Yinchuan Hedong International Airport,38.322758,106.393214,Yinchuan,China,CN-64,烟台市,山东省,264000,86,Asia/Shanghai
Duplicate --Yantai Penglai International Airport,37.65722,120.9872,Yantai,China,CN-U-A,元谋县,云南省,,86,Asia/Shanghai
Yuanmou Air Base,25.737499237061,101.88200378417999,Yuanmou,China,CN-53,丰宁县,,,86,Asia/Shanghai
Fengning Air Base,41.26079940795898,116.61799621582031,,China,CN-13,呼和浩特市,内蒙古自治区,,86,Asia/Shanghai
Hohhot Air Base,40.73720169067383,111.22899627685548,,China,CN-15,,山西省,,86,Asia/Shanghai
Huairen Air Base,39.7174987793,113.142997742,Datong,China,CN-14,房山区,北京市,102488,86,Asia/Shanghai
Liangxiangzhen Air Base,39.7578010559082,116.1259994506836,Beijing,China,CN-11,,江西省,,86,Asia/Shanghai
Lushan Heliport,29.664375858000003,116.07995510100001,,China,CN-U-A,,天津市,,86,Asia/Shanghai
Tangguantun Air Base,38.78110122680664,117.06800079345705,,China,CN-12,,河北省,063000,86,Asia/Shanghai
Tangshan Air Base,39.65639877319336,118.13600158691406,,China,CN-13,,山西省,,86,Asia/Shanghai
Wenshui Air Base,37.407798767089844,111.96600341796876,,China,CN-14,武清区,天津市,301700,86,Asia/Shanghai
Yangcun Air Base,39.37329864501953,117.09500122070312,,China,CN-12,,北京市,,86,Asia/Shanghai
Yongning Air Base,40.50310134887695,116.10800170898438,Yongning,China,CN-11,,北京市,,86,Asia/Shanghai
Badaling or YanQing Airport,40.3786111111,115.9375,Yanqing,China,CN-13,,,075000,86,Asia/Shanghai
Zhangjiakou Ningyuan Airport,40.7386016846,114.930000305,Zhangjiakou,China,CN-13,,,,86,Asia/Shanghai
Zunhua Air Base,40.102500915527344,117.88700103759766,,China,CN-13,黄田坝街道,四川省,610130,86,Asia/Shanghai
Chengdu Air Base,30.70529937744141,103.9499969482422,,China,CN-51,保山市 (Baoshan),云南省,,86,Asia/Shanghai
Baoshan Yunduan Airport,25.053301,99.168297,,China,CN-53,,海南省,,86,Asia/Shanghai
Fiery Cross Reef Helipad,9.539168,112.880071,,China,CN-46,,海南省,,86,Asia/Shanghai
Fiery Cross Reef Airfield,9.552789,112.889554,,China,CN-46,,重庆市,,86,Asia/Shanghai
Chongqing Air Base,29.49530029296875,106.35900115966795,Chongqing,China,CN-50,,海南省,,86,Asia/Shanghai
Subi Reef Helipad,10.913002,114.061933,,China,CN-U-A,昆明市,云南省,650022,86,Asia/Shanghai
Kunming Wujiaba International Airport,24.9924,102.7435,Kunming,China,CN-53,当雄县,西藏自治区 - བོད་,,86,Asia/Shanghai
Dangxiong Air Base,30.48500061035156,91.06580352783205,,China,CN-54,大足区,重庆市,,86,Asia/Shanghai
Dazu Air Base,29.636227,105.773621,Dazu,China,CN-50,沾益区,云南省,,86,Asia/Shanghai
Zhanyi Airport,25.592199325561523,103.8290023803711,,China,CN-53,汕头市,广东省,,86,Asia/Shanghai
Shantou Waisha Airport,23.426900863647,116.7620010376,Shantou,China,CN-44,,山西省,,86,Asia/Shanghai
Yongji Airport,34.8723,110.361,Yongji,China,CN-14,,海南省,,86,Asia/Shanghai
BFA International Convention Center Heliport,19.140251,110.5632,Dongyu Island,China,CN-46,玉溪市,云南省,,86,Asia/Shanghai
Lijiang Airport,23.5847,102.010003,Yuanjiang,China,CN-53,临翔区,云南省,,86,Asia/Shanghai
Lintsang Airfield,23.738100051900002,100.025001526,Lincang,China,CN-53,,云南省,,86,Asia/Shanghai
Luliang Air Base,24.988300323486328,103.64199829101562,,China,CN-53,当阳市,湖北省,,86,Asia/Shanghai
Old Dangyang Airport,30.823,111.8121,Dangyang,China,CN-42,,云南省,,86,Asia/Shanghai
Mengzi Air Base,23.395299911499023,103.33399963378906,,China,CN-53,伍家岗区,湖北省,,86,Asia/Shanghai
Yichang Tu Men Wu Airport,30.671,111.4404,Yichang,China,CN-42,成都市,四川省,,86,Asia/Shanghai
Qionglai Air Base,30.489999771118164,103.46499633789062,,China,CN-51,江当乡,西藏自治区 - བོད་,,86,Asia/Shanghai
Shigatse Air Base,29.3519,89.311401,Xigazê,China,CN-54,君山区,,,86,Asia/Shanghai
Old Yueyang Airport,29.424,113.0416,Yeuyang,China,CN-43,,云南省,,86,Asia/Shanghai
Wenshan Air Base,23.715599060058594,103.8270034790039,,China,CN-53,,云南省,,86,Asia/Shanghai
Xiangyun Midu Air Base,25.44529914855957,100.73500061035156,,China,CN-53,东区,四川省,617000,86,Asia/Shanghai
Bao'anying Airport,26.54,101.79852,Panzhihua,China,CN-51,,四川省,,86,Asia/Shanghai
Zigong Airport,29.376484,104.625789,Zigong,China,CN-51,,四川省,,86,Asia/Shanghai
Leshan Airport,29.73339600000001,103.612168,Leshan,China,CN-51,,广西壮族自治区,,86,Asia/Shanghai
Baihe Ning Ming Air Base,22.1205997467041,107.125,,China,CN-45,,,071000,86,Asia/Shanghai
Baoding Army Heliport,38.83359,115.521626,Baoding,China,CN-13,天心区,,410009,86,Asia/Shanghai
Changsha Datuopu Airport/AFB,28.0688991547,112.958000183,Changsha,China,CN-43,当阳市,湖北省,,86,Asia/Shanghai
Dangyang Air Base,30.798599243164066,111.80999755859376,,China,CN-42,,海南省,,86,Asia/Shanghai
Foluo Northeast Air Base,18.69219970703125,109.16100311279295,,China,CN-46,,辽宁省,,86,Asia/Shanghai
Donggang Airport,39.948964,124.145162,Dandong,China,CN-21,广州市,广东省,510650,86,Asia/Shanghai
Guangzhou East Airfield,23.16469955444336,113.36900329589844,,China,CN-44,,青海省,,86,Asia/Shanghai
Haibei Airport,36.990726,100.857505,Haibei,China,CN-63,佛山市,广东省,,86,Asia/Shanghai
Foshan Shadi Airport,23.0832996368,113.069999695,Foshan,China,CN-44,,四川省,,86,Asia/Shanghai
Bazhong Enyang Airport,31.73842,106.644872,Bazhong,China,CN-51,贵港市,广西壮族自治区,,86,Asia/Shanghai
Guiping Mengshu Air Base,23.330799102783203,110.00900268554688,,China,CN-45,琼山区,海南省,570000,86,Asia/Shanghai
Haikou City Airfield,20.01889991760254,110.34700012207031,,China,CN-46,,陕西省,723000,86,Asia/Shanghai
Hanzhong Xiguan Airport,33.063599,107.008003,Hanzhong,China,CN-61,贵阳市 / Guiyang,贵州省,,86,Asia/Shanghai
Guiyang Air Base,26.40994,106.53226399999998,Guiyang,China,CN-52,,河南省,,86,Asia/Shanghai
Xinyang Minggang Airport,32.540819,114.079141,Xinyang,China,CN-41,惠州市,广东省,,86,Asia/Shanghai
Huizhou Airport,23.0499992371,114.599998474,Huizhou,China,CN-44,,海南省,,86,Asia/Shanghai
Jialaishi Air Base,19.697200775146484,109.72599792480469,,China,CN-46,长春市,吉林省,130000,86,Asia/Shanghai
Changchun East Airport,43.888157,125.405307,Changchun,China,CN-22,衡阳市,,,86,Asia/Shanghai
Leiyang Air Base,26.587200164794922,112.89199829101562,,China,CN-43,陵水县,海南省,,86,Asia/Shanghai
Lingshui Air Base,18.494400024414066,109.98799896240234,,China,CN-46,,陕西省,,86,Asia/Shanghai
Danfeng Airport,33.708533,110.249284,Danfeng,China,CN-61,,河南省,,86,Asia/Shanghai
Shangqiu Air Base,34.449507000000004,115.459261,Shangqiu,China,CN-41,梅州市,广东省,514000,86,Asia/Shanghai
Meixian Air Base,24.26499938964844,116.0999984741211,,China,CN-44,郑州市,河南省,,86,Asia/Shanghai
Zhengzhou Air Base,34.86125,113.729631,,China,CN-41,,新疆维吾尔自治区,,86,Asia/Shanghai
PLA Khunjerab Post Helipad,36.930618,75.55340699999998,,China,CN-U-A,浦东新区,上海市,2000080,86,Asia/Shanghai
Aurora Plaza Helipad,31.234386,121.499617,Shanghai,China,CN-33,,广东省,,86,Asia/Shanghai
Shaoguan Guitou Airport,24.9785995483,113.42099762,Shaoguan,China,CN-44,,广东省,,86,Asia/Shanghai
Suixi Air Base,21.39579963684082,110.1999969482422,,China,CN-44,吉安市,江西省,,86,Asia/Shanghai
Jinggangshan Airport,26.8568992615,114.73699951200001,Ji'an,China,CN-36,百色市,广西壮族自治区,,86,Asia/Shanghai
Baise Youjiang Airport,23.7206001282,106.959999084,Baise,China,CN-45,泰安市,山东省,271200,86,Asia/Shanghai
Guodu air base,36.001741,117.63201,,China,CN-U-A,万松街道,湖北省,,86,Asia/Shanghai
Wuhan Air Base,30.5986003876,114.241996765,Wuhan,China,CN-42,,湖北省,,86,Asia/Shanghai
Xiaogan Air Base,30.95439910888672,113.91100311279295,,China,CN-42,,甘肃省,,86,Asia/Shanghai
Dalachi Airbase,36.628134,105.002346,Dalachi,China,CN-62,昆明市,云南省,,86,Asia/Shanghai
Chenggong Airport,24.846346,102.801256,Chenggong,China,CN-53,,辽宁省,,86,Asia/Shanghai
Dabao Airbase,40.5402,124.2295,Dapu,China,CN-21,东海县,江苏省,,86,Asia/Shanghai
Baitabu Air Base,34.571399688720696,118.875,,China,CN-32,,河北省,061000,86,Asia/Shanghai
Cangxian Air Base,38.40250015258789,116.9290008544922,,China,CN-13,,山东省,257500,86,Asia/Shanghai
Dongying Shengli Airport,37.508598327600005,118.788002014,Dongying,China,CN-37,,山东省,266300,86,Asia/Shanghai
Jiaozhou/Jiaocheng Air Base,36.33060073852539,120.02400207519531,,China,CN-37,,山东省,,86,Asia/Shanghai
Jinan Air Base,36.67919921875,116.9209976196289,,China,CN-37,,河北省,053000,86,Asia/Shanghai
Jiugucheng Air Base,37.4900016784668,116.11799621582031,,China,CN-13,,河南省,,86,Asia/Shanghai
Kaifeng Air Base,34.75389862060547,114.33899688720705,Kaifeng,China,CN-41,烟台市,山东省,265200,86,Asia/Shanghai
Laiyang Air Base,36.963600158691406,120.59100341796876,,China,CN-37,鲁山县,河南省,,86,Asia/Shanghai
Luyang Air Base,33.68470001220703,112.89099884033205,,China,CN-41,李沧区,山东省,266021,86,Asia/Shanghai
Qingdao-Cangkou Air Base,36.15919876098633,120.39199829101562,,China,CN-37,黄岛区,山东省,266500,86,Asia/Shanghai
Qingdao Naval Base,36.04690170288086,120.28399658203124,,China,CN-37,威海市,山东省,264400,86,Asia/Shanghai
Wendeng Air Base,37.26470184326172,122.02300262451172,,China,CN-37,兴城市,辽宁省,125105,86,Asia/Shanghai
Xingcheng Air Base,40.580299377399996,120.69799804700001,,China,CN-21,,江苏省,,86,Asia/Shanghai
Xuzhou Daguozhang Air Base,34.05889892578125,117.55799865722656,,China,CN-32,徐州市,江苏省,,86,Asia/Shanghai
Xuzhou Jiulishan Air Base,34.23059844970703,117.24600219726562,,China,CN-32,青州市,山东省,,86,Asia/Shanghai
Yidu Air Base,36.591400146484375,118.5270004272461,,China,CN-37,诸城市,山东省,,86,Asia/Shanghai
Zhucheng Air Base,36.02750015258789,119.43900299072266,,China,CN-37,阿勒泰市,新疆维吾尔自治区,,86,Asia/Shanghai
Altay Air Base,47.7498855591,88.0858078003,Altay,China,CN-65,,陕西省,,86,Asia/Shanghai
Baoji Air Base,34.531700134277344,107.47200012207031,,China,CN-61,共和县,青海省,,86,Asia/Shanghai
Gonghe Air Base,36.33670043945313,100.4800033569336,,China,CN-63,,甘肃省,,86,Asia/Shanghai
Lanzhou Air Base,35.91780090332031,104.21800231933594,Lanzhou,China,CN-62,,甘肃省,,86,Asia/Shanghai
Ljtao Air Base,35.30830001831055,103.83599853515624,,China,CN-62,,甘肃省,735000,86,Asia/Shanghai
Qingshui Air Base,39.5546989440918,98.88420104980469,,China,CN-62,,新疆维吾尔自治区,832003,86,Asia/Shanghai
Shihezi Airfield,44.332801818847656,86.11669921875,,China,CN-65,,甘肃省,741000,86,Asia/Shanghai
Tianshui Maijishan Airport,34.559398651100004,105.86000061,Tianshui,China,CN-62,乌鲁木齐市 / Ürümqi / ئۈرۈمچى,新疆维吾尔自治区,830000,86,Asia/Shanghai
Urumqi South Air Base,43.46580123901367,87.5322036743164,,China,CN-65,和硕县马兰公安管区,新疆维吾尔自治区,,86,Asia/Shanghai
Uxxaktal Air Base,42.181400299072266,87.18810272216797,,China,CN-65,武功县,陕西省,,86,Asia/Shanghai
Wugong Air Base,34.274200439453125,108.26599884033205,,China,CN-61,昌吉市,新疆维吾尔自治区,,86,Asia/Shanghai
Wulumuqi Air Base,43.9502983093,87.0785980225,,China,CN-65,,甘肃省,,86,Asia/Shanghai
Wuwei Air Base,37.98830032348633,102.56700134277344,,China,CN-62,,陕西省,710300,86,Asia/Shanghai
Xian Air Base,34.15390014648437,108.5989990234375,,China,CN-61,大余县 (Dayu),江西省,,86,Asia/Shanghai
Xincheng Air Base,25.54829978942871,114.61900329589844,,China,CN-36,哈密市,新疆维吾尔自治区,,86,Asia/Shanghai
Yaerbashi Test Range,43.07720184326172,92.80809783935548,,China,CN-65,西安市,陕西省,710089,86,Asia/Shanghai
Yanliang Air Base,34.64390182495117,109.24299621582031,,China,CN-61,,甘肃省,734000,86,Asia/Shanghai
Zhangye Ganzhou Airport,38.8018989563,100.67500305200001,Zhangye,China,CN-62,长兴县,浙江省,,86,Asia/Shanghai
Changzing Air Base,30.96859931945801,119.7310028076172,,China,CN-33,舟山市,浙江省,,86,Asia/Shanghai
Daishan Air Base,30.287799835205078,122.1449966430664,,China,CN-33,合肥市,安徽省,231600,86,Asia/Shanghai
Feidong Air Base,31.90940093994141,117.65899658203124,,China,CN-34,仓山区,福建省,350007,86,Asia/Shanghai
Fuzhou Air Base,26.0044002532959,119.31199645996094,Fuzhou,China,CN-35,泉州市,福建省,362100,86,Asia/Shanghai
Huian Air Base,25.02610015869141,118.80699920654295,,China,CN-35,彭埠街道,浙江省,,86,Asia/Shanghai
Jianqiao/Hangzhou Airfield,30.33530044555664,120.24099731445312,Hangzhou,China,CN-33,南湖区,浙江省,,86,Asia/Shanghai
Jiaxing Air Base,30.706640243530273,120.68061065673828,,China,CN-33,福州市,福建省,,86,Asia/Shanghai
Longtian/Lung-T'ien Air Base,25.57279968261719,119.45999908447266,,China,CN-35,衢州市,浙江省,,86,Asia/Shanghai
Longyou Air Base,29.113100051879893,119.177001953125,,China,CN-33,,江西省,,86,Asia/Shanghai
Mahuiling Air Base,29.47719955444336,115.802001953125,,China,CN-36,昌南工业园,江西省,330026,86,Asia/Shanghai
Nanchang New Airfield,28.63559913635254,115.93000030517578,Nanchang,China,CN-36,南昌市,江西省,,86,Asia/Shanghai
Nanchang Xiangtang Air Base,28.42079925537109,115.92400360107422,Nanchang,China,CN-36,宁波市,浙江省,315201,86,Asia/Shanghai
Ningbo Zhangqiao Air Base,29.922800064086914,121.5739974975586,,China,CN-33,,上海市,200436,86,Asia/Shanghai
Shanghai Dachang Air Base,31.32360076904297,121.41100311279295,Shanghai,China,CN-31,徐汇区,上海市,200232,86,Asia/Shanghai
Shanghai Longhua Airport,31.166901,121.454002,Shanghai,China,CN-31,杨浦区,上海市,200438,86,Asia/Shanghai
Shanghai Jiangwan Airfield,31.3330001831,121.5,Shanghai,China,CN-31,宜春市,江西省,331200,86,Asia/Shanghai
Zhangshu Air Base,28.02169990539551,115.5510025024414,,China,CN-36,芗城区,福建省,,86,Asia/Shanghai
Zhangzhou/Chang-Chou Airfield,24.5625,117.65399932861328,,China,CN-35,长春市,吉林省,130000,86,Asia/Shanghai
Changchun Air Base,43.90530014038086,125.197998046875,,China,CN-22,全宁街道办,内蒙古自治区,,86,Asia/Shanghai
Chifeng Air Base,42.15890121459961,118.84200286865234,,China,CN-15,,辽宁省,118000,86,Asia/Shanghai
Dandong Airport,40.0247,124.286003,Dandong,China,CN-21,,甘肃省,735300,86,Asia/Shanghai
Dingxin/Shuangchengzi Air Base,40.40140151977539,99.78939819335938,,China,CN-62,,辽宁省,123100,86,Asia/Shanghai
Fuxin Air Base,42.07889938354492,121.66200256347656,,China,CN-21,四平市,吉林省,,86,Asia/Shanghai
Gongzhuling Air Base,43.52420043945313,124.78600311279295,,China,CN-22,哈尔滨市,黑龙江省,150060,86,Asia/Shanghai
Harbin Air Base,45.597499847399995,126.65899658200001,,China,CN-23,,辽宁省,,86,Asia/Shanghai
Jinxi Air Base,40.74919891357422,120.87899780273438,Jinxi,China,CN-21,,辽宁省,121000,86,Asia/Shanghai
Jinzhou North Airfield,41.1869010925293,121.1729965209961,Jinzhou,China,CN-21,,辽宁省,,86,Asia/Shanghai
Kaiyuan Air Base,42.52579879760742,123.98200225830078,,China,CN-21,哈尔滨市,黑龙江省,,86,Asia/Shanghai
Lalin Air Base,45.2593994140625,126.8949966430664,,China,CN-23,平泉市,,,86,Asia/Shanghai
Pingquan Air Base,40.90079879760742,118.68099975585938,,China,CN-13,沈阳市,辽宁省,,86,Asia/Shanghai
Shenyang Beiling Air Base,41.87080001831055,123.43900299072266,Shenyang,China,CN-21,沈阳市,辽宁省,110024,86,Asia/Shanghai
Shenyang Yu Hung Tun Air Base,41.8224983215332,123.29900360107422,Shenyang,China,CN-21,双城区,黑龙江省,,86,Asia/Shanghai
Shuangcheng Air Base,45.407798767089844,126.31900024414062,,China,CN-23,四平市,吉林省,,86,Asia/Shanghai
Siping Air Base,43.156898498535156,124.29199981689452,,China,CN-22,绥中镇,辽宁省,,86,Asia/Shanghai
Suizhong Air Base,40.29890060424805,120.35900115966795,,China,CN-21,,辽宁省,,86,Asia/Shanghai
Tuchengzi Air Base,38.912200927734375,121.23899841308594,,China,CN-21,,辽宁省,,86,Asia/Shanghai
Yingchenzi/Xinzhaizi-Dalian Air Base,39.010601,121.389999,,China,CN-21,,辽宁省,,86,Asia/Shanghai
Sanshilipu Air Base,39.28950119018555,121.76100158691406,Dalian,China,CN-21,,江苏省,226300,86,Asia/Shanghai
Nantong Airport,32.0708007812,120.975997925,Nantong,China,CN-32,,California,95437,1,Asia/Shanghai
Baicheng Chang'an Airport,45.505278,123.019722,Baicheng,China,CN-22,,වයඹ පළාත,SETHAWADIYA,94,Asia/Shanghai
Saertu Airport,46.7463888889,125.14055555600001,Daqing Shi,China,CN-23,,,,227,Asia/Shanghai
Ejin Banner-Taolai Airport,42.0155,101.0005,Ejin Banner,China,CN-15,Mile,,,692,Asia/Shanghai
Golog Maqin Airport,34.418066,100.301144,Golog,China,CN-63,Sidi Yahya El Gharb ⵙⵉⴷⵉ ⵉⵃⵢⴰ ⵏ ⵍⵖⴰⵔⴱ سيدي يحيى الغرب,,14250,212,Asia/Shanghai
Qilian Airport,38.012,100.644,Qilian,China,CN-63,Hambantota,දකුණු පළාත,,94,Asia/Shanghai
Lianshui Airport,33.7908333333,119.125,Huai'an,China,CN-32,,ሶማሌ ክልል / Somali,,251,Asia/Shanghai
Shangjie Airport,34.842153,113.273983,Zhengzhou,China,CN-41,كسلا,كسلا,,249,Asia/Shanghai
Jiagedaqi Airport,50.371389,124.1175,Jiagedaqi,China,CN-23,,甘肃省,737100,86,Asia/Shanghai
Jinchuan Airport,38.542222222199996,102.348333333,Jinchang,China,CN-62,Tiakur,Maluku,,62,Asia/Shanghai
Qianjiang Wulingshan Airport,29.5133333333,108.831111111,Qianjiang,China,CN-50,,Ceará,,55,Asia/Shanghai
Jiuhuashan Airport,30.7403,117.6856,Chizhou,China,CN-34,,New Jersey,07004,1,Asia/Shanghai
Linfen Yaomiao Airport,36.043056,111.496667,Linfen,China,CN-14,,Grand Est,51360,33,Asia/Shanghai
Changbaishan Airport,42.066944,127.602222,Baishan,China,CN-22,,Florida,32407,1,Asia/Shanghai
Ninglang Luguhu Airport,27.5403,100.7593,Ninglang,China,CN-53,Alo,Wallis-et-Futuna,98610,33,Asia/Shanghai
Alxa Right Banner Badanjilin Airport,39.225,101.546,Badanjilin,China,CN-15,Warwick,Rhode Island,02886,1,Asia/Shanghai
Shangrao Sanqingshan Airport,28.3797,117.9643,Shangrao,China,CN-36,三明市,福建省,,86,Asia/Shanghai
Shaxian Airport,26.4263,117.8336,Sanming,China,CN-35,,Milne Bay,,675,Asia/Shanghai
Yantai Penglai International Airport,37.657222,120.987222,Yantai,China,CN-37,,Western Australia,6401,61,Asia/Shanghai
Yangzhou Taizhou Airport,32.560184,119.717141,,China,CN-32,,Victoria,3913,61,Asia/Shanghai
Sanhe Airport,29.314,113.278,Yueyang,China,CN-43,,,2880,61,Asia/Shanghai
Beijing Capital International Airport,40.0801010131836,116.58499908447266,Beijing,China,CN-11,,北京市,,86,Asia/Shanghai
Beijing Daxing International Airport,39.509945,116.41092,Beijing,China,CN-13,海淀区,北京市,100097,86,Asia/Shanghai
Beijing Xijiao Airport,39.9608,116.257004,Beijing,China,CN-11,,,,86,Asia/Shanghai
Chengde Puning Airport,41.1225,118.073889,Chengde,China,CN-13,站前街道办,内蒙古自治区,024000,86,Asia/Shanghai
Chifeng Airport,42.23500061035156,118.90799713134766,Chifeng,China,CN-15,,山西省,046099,86,Asia/Shanghai
Changzhi Airport,36.247501,113.125999,Changzhi,China,CN-14,,,,86,Asia/Shanghai
Qinhuangdao Beidaihe Airport,39.666389,119.058889,Qinhuangdao,China,CN-13,,内蒙古自治区,,86,Asia/Shanghai
Ordos Ejin Horo Airport,39.49,109.861388889,Ordos,China,CN-15,,山西省,,86,Asia/Shanghai
Handan Airport,36.5258333333,114.425555556,Handan,China,CN-42,呼和浩特市,内蒙古自治区,,86,Asia/Shanghai
Baita International Airport,40.851398,111.823997,Hohhot,China,CN-15,通辽市,内蒙古自治区,,86,Asia/Shanghai
Holingol Huolinhe Airport,45.487222,119.407222,Holingol,China,CN-15,,,,382,Asia/Shanghai
Dongshan Airport,49.2050018311,119.82499694799999,Hailar,China,CN-15,,山西省,,86,Asia/Shanghai
Linfen Qiaoli Airport,36.132629,111.641236,Linfen,China,CN-14,,山西省,,86,Asia/Shanghai
Lüliang Airport,37.68333300000001,111.142778,Lüliang,China,CN-61,,内蒙古自治区,,86,Asia/Shanghai
Manzhouli Xijiao Airport,49.566667,117.33,,China,CN-15,大兴区,北京市,100076,86,Asia/Shanghai
Beijing Nanyuan Airport,39.782798767089844,116.38800048828124,Beijing,China,CN-11,天骄街道办事处,内蒙古自治区,014000,86,Asia/Shanghai
Baotou Airport,40.560001373291016,109.99700164794922,Baotou,China,CN-15,,,,86,Asia/Shanghai
Shanhaiguan Airport,39.968102,119.731003,Qinhuangdao,China,CN-13,石家庄市,河北省,,86,Asia/Shanghai
Shijiazhuang Daguocun International Airport,38.28070068359375,114.6969985961914,Shijiazhuang,China,CN-13,东丽区,天津市,300300,86,Asia/Shanghai
Tianjin Binhai International Airport,39.1244010925,117.346000671,Tianjin,China,CN-12,通辽市,内蒙古自治区,,86,Asia/Shanghai
Tongliao Airport,43.556702,122.199997,Tongliao,China,CN-15,乌兰察布市,内蒙古自治区,,86,Asia/Shanghai
Ulanqab Jining Airport,41.129722,113.108056,Ulanqab,China,CN-15,千里山镇,内蒙古自治区,016000,86,Asia/Shanghai
Wuhai Airport,39.7934,106.7993,Wuhai,China,CN-15,,内蒙古自治区,,86,Asia/Shanghai
Ulanhot Airport,46.19533300000001,122.008333,Ulanhot,China,CN-15,,内蒙古自治区,,86,Asia/Shanghai
Xilinhot Airport,43.91559982299805,115.96399688720705,Xilinhot,China,CN-15,邢台市,河北省,054100,86,Asia/Shanghai
Xingtai Dalian Airport,36.8831,114.4293,Xingtai,China,CN-13,,山西省,,86,Asia/Shanghai
Xinzhou Wutaishan Airport,38.597456,112.969173,Xinzhou,China,CN-14,运城市空港经济开发区,山西省,044000,86,Asia/Shanghai
Yuncheng Guangong Airport,35.116391,111.031388889,Yuncheng,China,CN-61,,山西省,,86,Asia/Shanghai
Taiyuan Wusu Airport,37.74689865112305,112.62799835205078,Taiyuan,China,CN-14,,内蒙古自治区,,86,Asia/Shanghai
Bayannur Tianjitai Airport,40.926,107.7428,Bavannur,China,CN-15,高台子街道办,内蒙古自治区,,86,Asia/Shanghai
Chengjisihan Airport,47.865833,122.767503,Zhalantun,China,CN-15,,أبو ظبي,,971,Asia/Shanghai
Beihai Airport,21.5394,109.293999,Beihai,China,CN-45,常德市,,,86,Asia/Shanghai
Changde Airport,28.9188995361,111.63999939,Changde,China,CN-43,芷江县,,,86,Asia/Shanghai
Zhijiang Airport,27.4411111111,109.7,Huaihua,China,CN-43,,,,86,Asia/Shanghai
Dayong Airport,29.1028,110.443001,Dayong,China,CN-43,广州市,广东省,,86,Asia/Shanghai
Guangzhou Baiyun International Airport,23.39240074157715,113.29900360107422,Guangzhou,China,CN-44,,,,86,Asia/Shanghai
Changsha Huanghua International Airport,28.189199447600004,113.220001221,Changsha,China,CN-43,河池市,广西壮族自治区,,86,Asia/Shanghai
Hechi Jinchengjiang Airport,24.805,107.6997,Hechi,China,CN-45,,新疆维吾尔自治区,832099,86,Asia/Shanghai
Huayuan Airport,44.2421,85.8905,Shihezi,China,CN-65,珠晖区,,,86,Asia/Shanghai
Hengyang Nanyue Airport,26.9053,112.627998,Hengyang,China,CN-43,临桂区,广西壮族自治区,541100,86,Asia/Shanghai
Guilin Liangjiang International Airport,25.21809959411621,110.03900146484376,Guilin City,China,CN-45,云浮市 / Yunfu,广东省,,86,Asia/Shanghai
Luoding Sulong Airport.,22.711169,111.60134,Louding City,China,CN-44,永州市,,,86,Asia/Shanghai
Lingling Airport,26.338661,111.610043,Yongzhou,China,CN-43,梅州市,广东省,,86,Asia/Shanghai
Meixian Airport,24.35000038146973,116.13300323486328,Meixian,China,CN-44,江南区,广西壮族自治区,,86,Asia/Shanghai
Nanning Wuxu Airport,22.60829925537109,108.1719970703125,Nanning,China,CN-45,揭阳市,广东省,,86,Asia/Shanghai
Jieyang Chaoshan International Airport,23.552,116.5033,Shantou,China,CN-44,,广东省,519041,86,Asia/Shanghai
Zhuhai Jinwan Airport,22.006399,113.375999,Zhuhai,China,CN-44,武冈市,,,86,Asia/Shanghai
Shaoyang Wugang Airport,26.802,110.642,Shaoyang,China,CN-43,深圳市,广东省,518100,86,Asia/Shanghai
Shenzhen Bao'an International Airport,22.639299392700195,113.81099700927734,Shenzhen,China,CN-44,梧州市,广西壮族自治区,543000,86,Asia/Shanghai
Wuzhou Changzhoudao Airport,23.456699,111.248001,Wuzhou,China,CN-45,兴宁市,广东省,,86,Asia/Shanghai
Xingning Airport,24.1492,115.758003,Xingning,China,CN-44,柳江区,广西壮族自治区,,86,Asia/Shanghai
Liuzhou Bailian Airport,24.2075,109.390999,Liuzhou,China,CN-45,,广东省,524000,86,Asia/Shanghai
Zhanjiang Airport,21.214399,110.358002,Zhanjiang,China,CN-44,北关区,河南省,455000,86,Asia/Shanghai
Anyang Airport,36.1339,114.344002,Anyang,China,CN-41,郑州市,河南省,,86,Asia/Shanghai
Zhengzhou Xinzheng International Airport,34.519699096699995,113.84100341799999,Zhengzhou,China,CN-41,,湖北省,445000,86,Asia/Shanghai
Enshi Airport,30.3202991486,109.48500061,Enshi,China,CN-42,,湖北省,,86,Asia/Shanghai
Guangzhou MR Air Base,32.38940048217773,111.69499969482422,Guanghua,China,CN-42,,湖北省,,86,Asia/Shanghai
Wuhan Tianhe International Airport,30.7838,114.208,Wuhan,China,CN-42,,河南省,,86,Asia/Shanghai
Luoyang Airport,34.741100311299995,112.38800048799999,Luoyang,China,CN-41,,河南省,473000,86,Asia/Shanghai
Nanyang Jiangying Airport,32.980801,112.614998,Nanyang,China,CN-41,神农架林区,湖北省,,86,Asia/Shanghai
Shennongjia Hongping Airport,31.626,110.34,Shennongjia,China,CN-42,沙市区,湖北省,434000,86,Asia/Shanghai
Shashi Airport,30.324289,112.279861,Shashi,China,CN-42,茅箭区,湖北省,,86,Asia/Shanghai
Shiyan Wudangshan Airport,32.591667,110.907778,Shiyan,China,CN-42,襄州区,湖北省,,86,Asia/Shanghai
Xiangyang Liuji Airport,32.1506,112.291,Xiangfan,China,CN-42,宜昌市,湖北省,,86,Asia/Shanghai
Yichang Sanxia Airport,30.55655,111.479988,Yichang,China,CN-42,,سنڌ,,92,Asia/Shanghai
Haikou Meilan International Airport,19.93490028381348,110.45899963378906,Haikou,China,CN-46,,海南省,,86,Asia/Shanghai
Qionghai Bo'ao Airport,19.13824,110.454775,Qionghai,China,CN-46,三亚市 / Sanya,海南省,572023,86,Asia/Shanghai
Sanya Phoenix International Airport,18.30290031433105,109.41200256347656,Sanya,China,CN-46,永兴(镇)管理委员会,海南省,573199,86,Asia/Shanghai
Ankang Wulipu Airport,32.708099,108.931,Ankang,China,CN-61,,甘肃省,730001,86,Asia/Shanghai
Lanzhou City Airport,36.033333,103.86667,Lanzhou,China,CN-62,,甘肃省,736200,86,Asia/Shanghai
Dunhuang Airport,40.16109848022461,94.80919647216795,Dunhuang,China,CN-62,,青海省,,86,Asia/Shanghai
Delingha Airport,37.125286,97.268658,Delingha,China,CN-63,الكويرة,,,212,Asia/Shanghai
Golmud Airport,36.4006,94.786102,Golmud,China,CN-63,,宁夏回族自治区,,86,Asia/Shanghai
Guyuan Liupanshan Airport,36.078888888899996,106.21694444399999,Guyuan,China,CN-64,,青海省,816400,86,Asia/Shanghai
Huatugou Airport,38.201984,90.841495,Mengnai,China,CN-63,,陕西省,,86,Asia/Shanghai
Hanzhong Chenggu Airport,33.134136,107.206014,Hanzhong,China,CN-61,,宁夏回族自治区,,86,Asia/Shanghai
Yinchuan/Xincheng Air Base,38.481899,106.009003,Yinchuan,China,CN-64,嘉祥县,山东省,,86,Asia/Shanghai
Jining Qufu Airport,35.29277800000001,116.346667,Jining,China,CN-37,,甘肃省,735 100,86,Asia/Shanghai
Jiayuguan Airport,39.856899,98.3414,Jiayuguan,China,CN-62,,甘肃省,730087,86,Asia/Shanghai
Lanzhou Zhongchuan Airport,36.5152015686,103.620002747,Lanzhou,China,CN-62,成县,甘肃省,,86,Asia/Shanghai
Longnan Chengzhou Airport,33.788000000000004,105.797,Longnan,China,CN-62,渭南市,陕西省,,86,Asia/Shanghai
Pucheng Neifu Airport,34.833345,109.544267,Pucheng,China,CN-61,,甘肃省,,86,Asia/Shanghai
Qingyang Airport,35.799702,107.602997,Qingyang,China,CN-62,西安市,陕西省,,86,Asia/Shanghai
Xi'an Xiguan Airport,34.376701000000004,109.120003,Xi'an,China,CN-61,,甘肃省,,86,Asia/Shanghai
Gannan Xiahe Airport,34.8105,102.6447,Xiahe,China,CN-62,,青海省,,86,Asia/Shanghai
Xining Caojiabu Airport,36.5275,102.042999,Xining,China,CN-63,,陕西省,,86,Asia/Shanghai
Xi'an Xianyang International Airport,34.447102,108.751999,Xi'an,China,CN-61,,陕西省,,86,Asia/Shanghai
Yan'an Ershilipu Airport,36.636902,109.554001,Yan'an,China,CN-61,榆林市,陕西省,,86,Asia/Shanghai
Yulin Yuyang Airport,38.35971,109.590927,Yulin,China,CN-61,,宁夏回族自治区,,86,Asia/Shanghai
Zhongwei Shapotou Airport,37.573125,105.154454,Zhongwei,China,CN-64,Lusaka,Lusaka Province,10101,260,Asia/Shanghai
Cangyuan Washan Airport,23.273889,99.373611,Cangyuan Va Autonomous County,China,CN-53,,云南省,,86,Asia/Shanghai
Dali Airport,25.649401,100.319,Xiaguan,China,CN-53,迪庆藏族自治州,云南省,,86,Asia/Shanghai
Diqing Airport,27.7936,99.6772,Shangri-La,China,CN-53,,云南省,666100,86,Asia/Shanghai
Xishuangbanna Gasa Airport,21.973899841308594,100.76000213623048,Jinghong,China,CN-53,,云南省,665000,86,Asia/Shanghai
Lancang Jingmai Airport,22.415833,99.786389,Lancang Lahu Autonomous County,China,CN-53,丽江市,云南省,,86,Asia/Shanghai
Lijiang Airport,26.6800003052,100.24600219700001,Lijiang,China,CN-53,,云南省,665000,86,Asia/Shanghai
Mangshi Airport,24.4011,98.5317,Luxi,China,CN-53,昆明市,云南省,,86,Asia/Shanghai
Kunming Changshui International Airport,25.1019444,102.9291667,Kunming,China,CN-53,,云南省,665000,86,Asia/Shanghai
Pu'er Simao Airport,22.793301,100.959,Pu'er,China,CN-53,,云南省,,86,Asia/Shanghai
Wenshan Puzhehei Airport,23.5583,104.3255,Wenshan,China,CN-53,,云南省,,86,Asia/Shanghai
Zhaotong Airport,27.32559967041016,103.75499725341795,Zhaotong,China,CN-53,湖里区,福建省,361009,86,Asia/Shanghai
Xiamen Gaoqi International Airport,24.54400062561035,118.12799835205078,Xiamen,China,CN-35,迎江区,安徽省,,86,Asia/Shanghai
Anqing Tianzhushan Airport,30.582199,117.050003,Anqing,China,CN-34,禹会区,安徽省,,86,Asia/Shanghai
Bengbu Airport,32.8477333333,117.320244444,Bengbu,China,CN-34,,江苏省,213000,86,Asia/Shanghai
Changzhou Benniu Airport,31.919701,119.778999,Changzhou,China,CN-32,南昌市,江西省,,86,Asia/Shanghai
Nanchang Changbei International Airport,28.864999771118164,115.9000015258789,Nanchang,China,CN-36,颍州区,安徽省,236037,86,Asia/Shanghai
Fuyang Xiguan Airport,32.882157,115.734364,Fuyang,China,CN-U-A,福州市,福建省,,86,Asia/Shanghai
Fuzhou Changle International Airport,25.935100555419922,119.66300201416016,Fuzhou,China,CN-35,赣州市,江西省,,86,Asia/Shanghai
Ganzhou Airport,25.853333,114.778889,Ganzhou,China,CN-36,萧山区,浙江省,311223,86,Asia/Shanghai
Hangzhou Xiaoshan International Airport,30.22949981689453,120.43399810791016,Hangzhou,China,CN-33,景德镇市,江西省,,86,Asia/Shanghai
Jingdezhen Airport,29.3386001587,117.176002502,Jingdezhen,China,CN-36,,江西省,,86,Asia/Shanghai
Jiujiang Lushan Airport,29.476944,115.801111,Jiujiang,China,CN-36,高新区,山东省,,86,Asia/Shanghai
Yaoqiang Airport,36.857200622558594,117.21600341796876,Jinan,China,CN-37,衢州市,浙江省,,86,Asia/Shanghai
Quzhou Airport,28.965799,118.899002,Quzhou,China,CN-33,龙岩市,福建省,366200,86,Asia/Shanghai
Longyan Guanzhishan Airport,25.6746997833,116.747001648,Longyan,China,CN-35,东海县,江苏省,,86,Asia/Shanghai
Lianyungang Airport,34.571667,118.873611,Lianyungang,China,CN-32,路桥区,浙江省,318050,86,Asia/Shanghai
Huangyan Luqiao Airport,28.56220054626465,121.4290008544922,Huangyan,China,CN-33,临沂市,山东省,,86,Asia/Shanghai
Shubuling Airport,35.04610061645508,118.41200256347656,Linyi,China,CN-37,宁波市,浙江省,,86,Asia/Shanghai
Ningbo Lishe International Airport,29.82670021057129,121.46199798583984,Ningbo,China,CN-33,南京市,江苏省,,86,Asia/Shanghai
Nanjing Lukou Airport,31.742000579833984,118.86199951171876,Nanjing,China,CN-32,骆岗街道,安徽省,230051,86,Asia/Shanghai
Hefei Luogang International Airport,31.78000068664551,117.2979965209961,Hefei,China,CN-34,浦东新区,上海市,,86,Asia/Shanghai
Shanghai Pudong International Airport,31.143400192260746,121.80500030517578,Shanghai,China,CN-31,城阳区,山东省,266041,86,Asia/Shanghai
Liuting Airport,36.2661018372,120.374000549,Qingdao,China,CN-37,泉州市,福建省,,86,Asia/Shanghai
Quanzhou Jinjiang International Airport,24.7964,118.589996,Quanzhou,China,CN-35,,江苏省,226500,86,Asia/Shanghai
Rugao Air Base,32.257884979248054,120.50165557861328,Rugao,China,CN-32,东港区,山东省,276800,86,Asia/Shanghai
Rizhao Shanzihe Airport,35.405033,119.324403,Rizhao,China,CN-37,闵行区,上海市,201106,86,Asia/Shanghai
Shanghai Hongqiao International Airport,31.19790077209473,121.33599853515624,Shanghai,China,CN-31,,江苏省,,86,Asia/Shanghai
Suzhou Guangfu Airport,31.2631,120.401001,Suzhou,China,CN-32,黄山市 / Huangshan,安徽省,245000,86,Asia/Shanghai
Tunxi International Airport,29.73329925537109,118.25599670410156,Huangshan,China,CN-34,,山东省,261206,86,Asia/Shanghai
Weifang Airport,36.64670200000001,119.119003,Weifang,China,CN-37,威海市,山东省,264400,86,Asia/Shanghai
Weihai Airport,37.18709945678711,122.22899627685548,Weihai,China,CN-37,马鞍山市,安徽省,241000,86,Asia/Shanghai
Wuhu Air Base,31.3906,118.408997,Wuhu,China,CN-34,无锡市,江苏省,214000,86,Asia/Shanghai
Sunan Shuofang International Airport,31.4944000244,120.429000854,Wuxi,China,CN-32,,福建省,,86,Asia/Shanghai
Nanping Wuyishan Airport,27.7019,118.000999,Wuyishan,China,CN-35,鹿城区,浙江省,,86,Asia/Shanghai
Wenzhou Longwan International Airport,27.912201,120.851997,Wenzhou,China,CN-33,,江苏省,,86,Asia/Shanghai
Xuzhou Guanyin Airport,34.059056,117.555278,Xuzhou,China,CN-32,扬州市,江苏省,225200,86,Asia/Shanghai
Yangzhou Taizhou Airport,32.5634,119.7198,Yangzhou and Taizhou,China,CN-32,袁州区 (Yuanzhou),江西省,,86,Asia/Shanghai
Yichun Mingyueshan Airport,27.8025,114.3062,Yichun,China,CN-36,亭湖区,江苏省,,86,Asia/Shanghai
Yancheng Airport,33.425833000000004,120.203056,Yancheng,China,CN-32,烟台市,山东省,264000,86,Asia/Shanghai
Yantai Laishan Airport,37.401699,121.372002,Yantai,China,CN-37,义乌市,浙江省,322000,86,Asia/Shanghai
Yiwu Airport,29.344699859600002,120.03199768100001,Yiwu,China,CN-33,舟山市,浙江省,316100,86,Asia/Shanghai
Zhoushan Airport,29.9342002869,122.36199951200001,Zhoushan,China,CN-33,,西藏自治区 - བོད་,,86,Asia/Shanghai
Ngari Gunsa Airport,32.1,80.05305555560001,Shiquanhe,China,CN-54,安顺市,贵州省,561000,86,Asia/Shanghai
Anshun Huangguoshu Airport,26.2605555556,105.87333333299999,Anshun,China,CN-U-A,,西藏自治区 - བོད་,,86,Asia/Shanghai
Qamdo Bangda Airport,30.553600311279297,97.1082992553711,Bangda,China,CN-54,,贵州省,,86,Asia/Shanghai
Bijie Feixiong Airport,27.267066,105.472097,Bijie,China,CN-52,,重庆市,,86,Asia/Shanghai
Chongqing Jiangbei International Airport,29.719200134277344,106.64199829101562,Chongqing,China,CN-50,,四川省,,86,Asia/Shanghai
Daocheng Yading Airport,29.323056,100.053333,Daocheng County,China,CN-51,,四川省,,86,Asia/Shanghai
Dachuan Airport,31.1302,107.4295,Dazhou,China,CN-51,德阳市,四川省,,86,Asia/Shanghai
Guanghan Airport,30.9485,104.3296,Civil Aviation Flight University of China,China,CN-51,,四川省,,86,Asia/Shanghai
Guangyuan Airport,32.391101837158196,105.7020034790039,Guangyuan,China,CN-51,南明区,贵州省,,86,Asia/Shanghai
Longdongbao Airport,26.53849983215332,106.8010025024414,Guiyang,China,CN-52,,四川省,,86,Asia/Shanghai
Jiuzhai Huanglong Airport,32.8533333333,103.68222222200001,Jiuzhaigou,China,CN-51,康定市,四川省,,86,Asia/Shanghai
Kangding Airport,30.142464,101.73872,Kangding,China,CN-51,黄平县,贵州省,,86,Asia/Shanghai
Kaili Airport,26.972,107.988,Huangping,China,CN-52,荔波县 (Libo),贵州省,558000,86,Asia/Shanghai
Libo Airport,25.4525,107.961667,Libo County,China,CN-52,梁平区,重庆市,,86,Asia/Shanghai
Liangping Airport,30.679399,107.786003,Liangping,China,CN-50,贡嘎县,西藏自治区 - བོད་,,86,Asia/Shanghai
Lhasa Gonggar Airport,29.2978000641,90.9119033813,Lhasa,China,CN-54,,四川省,,86,Asia/Shanghai
Luzhou Airport,28.85219955444336,105.39299774169922,Luzhou,China,CN-51,Өндөрхаан,Хэнтий,003976,976,Asia/Shanghai
Zunyi Maotai Airport,27.81638,106.33268,Zunyi,China,CN-52,,四川省,621000,86,Asia/Shanghai
Mianyang Airport,31.4281005859375,104.74099731445312,Mianyang,China,CN-51,,四川省,637000,86,Asia/Shanghai
Nanchong Gaoping Airport,30.79545,106.1626,Nanchong,China,CN-51,,贵州省,,86,Asia/Shanghai
Liping Airport,26.32217,109.1499,Liping,China,CN-52,米林县,西藏自治区 - བོད་,,86,Asia/Shanghai
Nyingchi Airport,29.303300857543945,94.33529663085938,Nyingchi,China,CN-54,,贵州省,,86,Asia/Shanghai
Liupanshui Yuezhao Airport,26.609417,104.979,Liupanshui,China,CN-52,,四川省,,86,Asia/Shanghai
Suining Airport,30.471295,105.610925,Suining,China,CN-51,腾冲市,云南省,679100,86,Asia/Shanghai
Tengchong Tuofeng Airport,24.9380555556,98.4858333333,Tengchong,China,CN-53,松桃苗族自治县 / Songtao,贵州省,558000,86,Asia/Shanghai
Tongren Fenghuang Airport,27.883333,109.308889,,China,CN-52,成都市,四川省,,86,Asia/Shanghai
Chengdu Shuangliu International Airport,30.578500747680664,103.9469985961914,Chengdu,China,CN-51,,重庆市,404000,86,Asia/Shanghai
Wanxian Airport,30.8017,108.433,Wanxian,China,CN-50,凉山彝族自治州,四川省,,86,Asia/Shanghai
Xichang Qingshan Airport,27.98909950256348,102.18399810791016,Xichang,China,CN-51,,四川省,,86,Asia/Shanghai
Yibin Caiba Airport,28.8005555556,104.545,Yibin,China,CN-51,兴义市,贵州省,,86,Asia/Shanghai
Xingyi Airport,25.0863888889,104.959444444,Xingyi,China,CN-52,遵义市 / Zunyi,贵州省,,86,Asia/Shanghai
Zunyi Xinzhou Airport,27.5895,107.0007,Zunyi,China,CN-52,,Matabeleland North,,263,Asia/Shanghai
Aksu Airport,41.262501,80.291702,Aksu,China,CN-65,双河市,新疆维吾尔自治区,,86,Asia/Shanghai
Alashankou Bole (Bortala) airport,44.895,82.3,Bole,China,CN-65,,新疆维吾尔自治区,,86,Asia/Shanghai
Qiemo Yudu Airport,38.233611,85.465556,Qiemo,China,CN-65,,新疆维吾尔自治区,,86,Asia/Shanghai
Fuyun Koktokay Airport,46.804169,89.512006,Fuyun,China,CN-65,第十三师,新疆维吾尔自治区,650500,86,Asia/Shanghai
Hami Airport,42.8414,93.669197,Hami,China,CN-65,库车市,新疆维吾尔自治区,,86,Asia/Shanghai
Kuqa Airport,41.677856,82.872917,Kuqa,China,CN-65,,新疆维吾尔自治区,841000,86,Asia/Shanghai
Korla Airport,41.69779968261719,86.12889862060547,Korla,China,CN-65,克拉玛依市,新疆维吾尔自治区,,86,Asia/Shanghai
Karamay Airport,45.46655,84.9527,Karamay,China,CN-65,,新疆维吾尔自治区,,86,Asia/Shanghai
Kanas Airport,48.2223,86.9959,Burqin,China,CN-65,,新疆维吾尔自治区,,86,Asia/Shanghai
Xinyuan Nalati Airport,43.4318,83.3786,Xinyuan County,China,CN-65,吾塔木乡,新疆维吾尔自治区,,86,Asia/Shanghai
Ruoqiang Loulan Airport,38.974722,88.008333,Ruoqiang Town,China,CN-65,莎车县,新疆维吾尔自治区,,86,Asia/Shanghai
Yeerqiang Airport,38.281055,77.075192,Shache,China,CN-65,喀什市قەشقەر شەھىرى,新疆维吾尔自治区,844000,86,Asia/Shanghai
Kashgar Airport,39.5429000854,76.0199966431,Kashgar,China,CN-65,鄯善县,新疆维吾尔自治区,,86,Asia/Shanghai
Shanshan Airport,42.91170120239258,90.24749755859376,Shanshan,China,CN-65,杜别克街道,新疆维吾尔自治区,,86,Asia/Shanghai
Tacheng Airport,46.67250061035156,83.3407974243164,Tacheng,China,CN-65,和田市 Hotan خوتەن شەھىرى,新疆维吾尔自治区,,86,Asia/Shanghai
Hotan Airport,37.03850173950195,79.86489868164062,Hotan,China,CN-65,高昌区,新疆维吾尔自治区,838000,86,Asia/Shanghai
Turpan Jiaohe Airport,43.0308,89.0987,Turpan,China,CN-65,乌鲁木齐市 / Ürümqi / ئۈرۈمچى,新疆维吾尔自治区,830000,86,Asia/Shanghai
Ürümqi Diwopu International Airport,43.90710067749024,87.47419738769531,Ürümqi,China,CN-65,伊宁市,新疆维吾尔自治区,,86,Asia/Shanghai
Yining Airport,43.955799,81.330299,Yining,China,CN-65,,辽宁省,,86,Asia/Shanghai
Anshan Air Base,41.105301,122.853996,Anshan,China,CN-21,长春市,吉林省,130000,86,Asia/Shanghai
Longjia Airport,43.9962005615,125.684997559,Changchun,China,CN-22,,辽宁省,,86,Asia/Shanghai
Changhai Airport,39.2666666667,122.666944444,Changhai,China,CN-21,朝阳市,辽宁省,122000,86,Asia/Shanghai
Chaoyang Airport,41.538101,120.434998,Chaoyang,China,CN-21,新发镇,黑龙江省,,86,Asia/Shanghai
Wudalianchi Dedu Airport,48.445,126.133,Wudalianchi,China,CN-23,城区街道,辽宁省,123100,86,Asia/Shanghai
Fuxin Airport,42.069014,121.718122,Fuxin,China,CN-21,,黑龙江省,154000,86,Asia/Shanghai
Dongji Aiport,48.199494,134.366447,Fuyuan,China,CN-23,哈尔滨市,黑龙江省,150000,86,Asia/Shanghai
Taiping Airport,45.6234016418457,126.25,Harbin,China,CN-23,,黑龙江省,,86,Asia/Shanghai
Heihe Airport,50.1716209371,127.308883667,Heihe,China,CN-23,新北街道,吉林省,,86,Asia/Shanghai
Jilin Airport,44.002201,126.396004,Jilin,China,CN-22,,黑龙江省,154000,86,Asia/Shanghai
Jiamusi Airport,46.84339904789999,130.464996338,Jiamusi,China,CN-23,,黑龙江省,154000,86,Asia/Shanghai
Jiansanjiang Airport,47.11,132.660278,Jiansanjiang,China,CN-23,,黑龙江省,,86,Asia/Shanghai
Jixi Xingkaihu Airport,45.293,131.19299999999998,Jixi,China,CN-23,太和区,辽宁省,121000,86,Asia/Shanghai
Jinzhou Airport,41.10139846801758,121.06199645996094,Jinzhou,China,CN-21,,黑龙江省,153000,86,Asia/Shanghai
Lindu Airport,47.7520555556,129.019125,Yichun,China,CN-23,སྐྱེ་དགུ་མདོ་ 结古街道,青海省,,86,Asia/Shanghai
Yushu Batang Airport,32.836388888900004,97.03638888889999,Yushu,China,CN-63,,黑龙江省,157000,86,Asia/Shanghai
Mudanjiang Hailang International Airport,44.524101257299996,129.569000244,Mudanjiang,China,CN-23,古莲镇,黑龙江省,,86,Asia/Shanghai
Gu-Lian Airport,52.912777777799995,122.43,Mohe,China,CN-23,,黑龙江省,,86,Asia/Shanghai
Qiqihar Sanjiazi Airport,47.239601135253906,123.91799926757812,Qiqihar,China,CN-23,前郭县,吉林省,,86,Asia/Shanghai
Songyuan Chaganhu Airport,44.938114,124.550178,Qian Gorlos Mongol Autonomous County,China,CN-22,,黑龙江省,,86,Asia/Shanghai
Tahe Airport,52.22444444439999,124.720222222,Tahe,China,CN-23,,辽宁省,116033,86,Asia/Shanghai
Zhoushuizi Airport,38.9656982421875,121.53900146484376,Dalian,China,CN-21,,吉林省,,86,Asia/Shanghai
Tonghua Sanyuanpu Airport,42.2538888889,125.70333333299999,Tonghua,China,CN-22,沈阳市,辽宁省,110169,86,Asia/Shanghai
Taoxian Airport,41.63980102539063,123.48300170898438,Shenyang,China,CN-21,,吉林省,,86,Asia/Shanghai
Yanji Chaoyangchuan Airport,42.8828010559,129.451004028,Yanji,China,CN-22,营口市,辽宁省,115000,86,Asia/Shanghai
Yingkou Lanqi Airport,40.542524,122.3586,Yingkou,China,CN-21,沈阳市,辽宁省,,86,Asia/Shanghai
Shenyang Dongta Airport,41.784400939941406,123.49600219726562,Shenyang,China,CN-21,,England,1001,44,Asia/Shanghai
