airport,latitude,longitude,municipality,country,country_code,city,state,postal_code,calling_code,timezone
Siachen Glacier AFS Airport,35.5,77.0,,India,IN-JK,,Arunachal Pradesh,790104,91,Asia/Kolkata
Tawang Air Force Station,27.58846092224121,91.87769317626952,,India,IN-AR,,Ladakh,,91,Asia/Kolkata
Daulat Beg Oldi Advanced Landing Ground,35.3964667088,77.92896509170002,,India,IN-JK,,Ladakh,0194101,91,Asia/Kolkata
Leh Helipad,34.12866973876953,77.53653717041016,,India,IN-JK,,Tamil Nadu,627714,91,Asia/Kolkata
Kayathar Airstrip,8.971388816833496,77.82062530517578,,India,IN-TN,,Tamil Nadu,623103,91,Asia/Kolkata
Chettinad Airstrip,10.164996147155762,78.79376983642578,,India,IN-TN,,Lakshadweep,,91,Asia/Kolkata
Minicoy Helipad,8.273630142211914,73.02230072021484,Minicoy Island,India,IN-LD,,Lakshadweep,262240,91,Asia/Kolkata
Kavaratti Helipad,10.541667938232422,72.61604309082031,,India,IN-LD,Gangtok,Sikkim,737101,91,Asia/Kolkata
Gangtok Helipad,27.355697631835927,88.61410522460938,,India,IN-SK,,Arunachal Pradesh,,91,Asia/Kolkata
Walong Advanced Landing Ground,28.12967300415,97.01966094970699,,India,IN-AR,Bengaluru,Karnataka,560092,91,Asia/Kolkata
Jakkur Aerodrome,13.07674,77.597645,Bengaluru,India,IN-KA,,Sikkim,737133,91,Asia/Kolkata
Pakyong Airport (Under Construction),27.2313,88.58719599999998,,India,IN-SK,,Telangana,500076,91,Asia/Kolkata
Nadirgul Airport,17.3060665131,78.5604858398,,India,IN-TG,,Manipur,795002,91,Asia/Kolkata
Koirengei Airstrip,24.87245941162109,93.9256820678711,,India,IN-MN,,Meghalaya,,91,Asia/Kolkata
Baljek Airport,25.661487579345703,90.34503936767578,,India,IN-ML,,Assam,786182,91,Asia/Kolkata
Ledo Airfield,27.3025,95.737222,,India,IN-AS,,West Bengal,721507,91,Asia/Kolkata
Dudhkundi Airfield,22.324591568800006,87.10741996770003,,India,IN-WB,,West Bengal,721127,91,Asia/Kolkata
Piardoba Airfield,22.9895085468,87.2995948792,,India,IN-WB,,Assam,,91,Asia/Kolkata
Dinjan Airfield,27.538017,95.269447,,India,IN-AS,,Tamil Nadu,606107,91,Asia/Kolkata
Ulundurpet Airstrip,11.6885487471,79.3213748932,,India,IN-TN,Mumbai,Maharashtra,400005,91,Asia/Kolkata
Shikra Naval Helibase,18.913345681200003,72.8292113543,Mumbai,India,IN-MM,Mumbai,Maharashtra,400005,91,Asia/Kolkata
Kunjali Helipad,18.895273369,72.8084939718,Mimbai,India,IN-MM,Amreli,Gujarat,364600,91,Asia/Kolkata
Amreli Airstrip,21.6198508623,71.22333526610002,Amreli,India,IN-GJ,,Maharashtra,413102,91,Asia/Kolkata
Baramati Airport,18.226944,74.59083299999998,Pune,India,IN-MM,Faizabad,Uttar Pradesh,224001,91,Asia/Kolkata
Faizabad Airport,26.7511282,82.15436509999998,Faizabad,India,IN-UP,Korba,Chhattisgarh,495600,91,Asia/Kolkata
Korba Airport,22.4141666667,82.7194444444,Rumgara,India,IN-CT,Aizawl,Mizoram,796190,91,Asia/Kolkata
Thuampui Helipad,23.7458666667,92.7367333333,,India,IN-MZ,,Mizoram,796701,91,Asia/Kolkata
Pukpui Helipad,22.9422666667,92.76885,,India,IN-MZ,,Mizoram,796691,91,Asia/Kolkata
Lunglei Helipad,22.8683833333,92.7633,,India,IN-MZ,,Mizoram,796181,91,Asia/Kolkata
Serchhip Helipad,23.32875,92.85606666670002,Serchhip,India,IN-MZ,,Mizoram,796101,91,Asia/Kolkata
Vairengte Helipad,24.4789166667,92.7539333333,,India,IN-MZ,,Mizoram,796901,91,Asia/Kolkata
Saiha Helipad,22.4885833333,92.98695,Saiha,India,IN-MZ,,Maharashtra,410400,91,Asia/Kolkata
Aamby Valley Airport,18.6096166667,73.37758333330002,Aamby Valley City,India,IN-MM,Nashik,Maharashtra,422001,91,Asia/Kolkata
Vijay Nagar Airport,19.8841,73.84056666670001,Vijay Nagar,India,IN-MM,Siliguri,West Bengal,734003,91,Asia/Kolkata
Sevoke Road Indian Army Heliport,26.7744,88.4523166667,Salugara,India,IN-WB,,Sikkim,737113,91,Asia/Kolkata
Pelling Helipad,27.3005,88.23085,Pelling City,India,IN-SK,,Sikkim,737126,91,Asia/Kolkata
Namchi Helipad,27.1567333333,88.32206666670002,Nayabazar,India,IN-SK,Gangtok,Sikkim,737101,91,Asia/Kolkata
Upper Tadong Indian Army Helipad,27.3067166667,88.59965,Upper Tadong,India,IN-SK,Darjeeling,West Bengal,734104,91,Asia/Kolkata
Lebong Helipad,27.0590833333,88.2777333333,Lebong,India,IN-WB,,West Bengal,737133,91,Asia/Kolkata
Pedong Helipad,27.1559333333,88.61065,Pedong,India,IN-SK,Shillong,Meghalaya,793001,91,Asia/Kolkata
HQ Eastern Air Command Helipad,25.5381833333,91.82655,Myliem,India,IN-ML,Shillong,Meghalaya,793001,91,Asia/Kolkata
Shillong Indian Army Helipad,25.54425,91.8817166667,Shillong,India,IN-ML,,Manipur,795006,91,Asia/Kolkata
STC BSF Indian Army Helipad,24.3267,93.67546666670002,Gangpimual,India,IN-MN,,Punjab,144020,91,Asia/Kolkata
PAP Complex Heliport,31.2920833333,75.6072,Jalandhar,India,IN-PB,Imphal,Manipur,795001,91,Asia/Kolkata
Catholic Medical Centre Helipad,24.8062,93.94275,Kangla,India,IN-MN,Mumbai,Maharashtra,400015,91,Asia/Kolkata
Butcher Island Helipad,18.9623,72.9030833333,Mumbai,India,IN-MM,Mumbai,Maharashtra,400018,91,Asia/Kolkata
Mahalaxmi Race Course Helipad,18.9820333333,72.8215666667,Mumbai,India,IN-MM,Mumbai,Maharashtra,400006,91,Asia/Kolkata
Raj Bhavan Helipad,18.94265,72.7940166667,Mumbai,India,IN-MM,,Nagaland,797001,91,Asia/Kolkata
Kohima Helipad,25.6630666667,94.1139333333,Kohima,India,IN-NL,,Rajasthan,342308,91,Asia/Kolkata
Phalodi Airfield,27.1128333333,72.389,Phalodi,India,IN-RJ,,Uttarakhand,248123,91,Asia/Kolkata
"Aviation Research Centre, RAW Headquarter Helipad",30.70645,77.8615,Chakrata,India,IN-UP,,Uttar Pradesh,281001,91,Asia/Kolkata
Mathura Heliport,27.464233333299997,77.68241666670002,Mathura,India,IN-UP,,Andaman and Nicobar Islands,,91,Asia/Kolkata
Shibpur Airstrip,13.236316301099999,93.04973065850001,Madhupur,India,IN-AN,Puruliya,West Bengal,723101,91,Asia/Kolkata
Charra Airfield,23.3657772896,86.43673896790001,Purulia,India,IN-WB,,West Bengal,743166,91,Asia/Kolkata
Kanchrapara Airfield,22.9229329875,88.4599292278,Kanchrapara,India,IN-WB,,Maharashtra,421004,91,Asia/Kolkata
Kalyan airstrip,19.1792197299,73.1391835213,Kalyan,India,IN-MM,,Odisha,,91,Asia/Kolkata
Rasgovindpur Airstrip,21.8050895155,87.04690933229998,Rasgovindpur,India,IN-OR,,West Bengal,741140,91,Asia/Kolkata
Dhubulia Airstrip,23.4929846863,88.4540176392,Dhubulia,India,IN-WB,,West Bengal,721121,91,Asia/Kolkata
Digri Airstrip,22.7854403333,87.36225128170004,Digri,India,IN-WB,Khargone,Madhya Pradesh,451001,91,Asia/Kolkata
Khargon Govt. Airstrip,21.8100301946,75.55443763730001,,India,IN-MP,Khandwa,Madhya Pradesh,450001,91,Asia/Kolkata
Khandwa Airport,21.8571174596,76.3369560242,Khandwa,India,IN-MP,,Maharashtra,425438,91,Asia/Kolkata
Shirpur Airport,21.3239987933,74.9567341805,Shirpur,India,IN-MM,,Tamil Nadu,600058,91,Asia/Kolkata
Cholavaram Airstrip,13.210241926300002,80.15234470370002,,India,IN-TN,,Madhya Pradesh,484661,91,Asia/Kolkata
Umaria Air Field,23.532513909899997,80.80821990970001,Umaria,India,IN-MP,,Maharashtra,444506,91,Asia/Kolkata
Amravati (Belora) Airstrip,20.8133485116,77.71790742870002,Amravati,India,IN-MM,,Bihar,847200,91,Asia/Kolkata
Madhubani Airport,26.3291666667,86.06,,India,IN-BR,,Bihar,847200,91,Asia/Kolkata
Madhubani Airport,26.3291666667,86.06,,India,IN-BR,,Madhya Pradesh,481051,91,Asia/Kolkata
kanha,22.092638604100003,80.5955314636,,India,IN-MP,Sultanpur,Uttar Pradesh,228001,91,Asia/Kolkata
Sultanpur,26.2475,82.0425,,India,IN-UP,,Karnataka,583123,91,Asia/Kolkata
Vijayanagar Aerodrome (JSW),15.174966666700001,76.6349472222,,India,IN-KA,,Karnataka,583228,91,Asia/Kolkata
Baldota Koppal Aerodrome,15.360094444400001,76.22005277779999,,India,IN-KA,Raigarh,Chhattisgarh,496001,91,Asia/Kolkata
Raigarh Airport (JSPL),21.9352805556,83.3502138889,,India,IN-CT,,Odisha,759122,91,Asia/Kolkata
Angul Airport (JSPL),20.91195,85.03258333330002,,India,IN-OR,,Odisha,770048,91,Asia/Kolkata
Barbil Aerodrome (JSPL),22.0486138889,85.37419444439999,,India,IN-OR,,Arunachal Pradesh,791110,91,Asia/Kolkata
Itanagar (Naharlagun),27.111675,93.6961055556,,India,IN-AR,,Arunachal Pradesh,791110,91,Asia/Kolkata
Itanagar (Naharlagun),27.111675,93.6961055556,,India,IN-AR,,Bihar,812003,91,Asia/Kolkata
Bhagalpur Airport,25.249359,87.00977900000002,Bhagalpur,India,IN-BR,,West Bengal,722122,91,Asia/Kolkata
Bishnupur Airfield,23.0339266917,87.35486984250002,,India,IN-WB,,West Bengal,713125,91,Asia/Kolkata
Guskhara Airfield,23.471667,87.794167,,India,IN-WB,Durgapur,West Bengal,713200,91,Asia/Kolkata
Pandaveswar Airfield,23.6413005209,87.348690033,,India,IN-WB,Shimla,Himachal Pradesh,171001,91,Asia/Kolkata
Annandale Helipad,31.1113888889,77.1569444444,,India,IN-HP,,Himachal Pradesh,,91,Asia/Kolkata
Ajog Helipad,32.9219444444,76.458,,India,IN-HP,,Himachal Pradesh,174001,91,Asia/Kolkata
Bilaspur Helipad,31.345138888900003,76.75675,Bilaspur,India,IN-HP,,Rajasthan,,91,Asia/Kolkata
Salwas,26.141647,73.097062,,India,IN-RJ,,Rajasthan,,91,Asia/Kolkata
Airport,26.436257,73.102823,,India,IN-RJ,Chhindwara,Madhya Pradesh,480001,91,Asia/Kolkata
CHINDWARA AIRFIELD,22.0,78.93,,India,IN-MP,,Uttarakhand,,91,Asia/Kolkata
GAUCHER,30.284444444400002,79.16166666670001,,India,IN-UL,,Jammu and Kashmir,185101,91,Asia/Kolkata
Poonch Airport,33.76875,74.083753,Poonch,India,IN-JK,,Jharkhand,833217,91,Asia/Kolkata
Noamundi Airport,22.192222222199998,85.54888888890001,,India,IN-JH,,Jharkhand,814112,91,Asia/Kolkata
Deoghar Airstrip,24.44666667,86.70694444,,India,IN-JH,Saharsa,Bihar,852200,91,Asia/Kolkata
saharsa airstrip,25.8919444444,86.5825,,India,IN-BR,,Odisha,,91,Asia/Kolkata
Jajpur ( Sukinda ) Airstrip,21.0319444444,85.75388888890001,,India,IN-OR,,Odisha,766027,91,Asia/Kolkata
Vedanta Lanjigarh Airstrip,19.7194444444,83.3936111111,,India,IN-OR,,Odisha,,91,Asia/Kolkata
no airport,20.46668667,83.48333056,,India,IN-OR,,Kerala,689711,91,Asia/Kolkata
Perunad Helipad,9.3539,76.86489,,India,IN-KL,,Rajasthan,,91,Asia/Kolkata
Akli Airport,25.8077,70.2943,Akli,India,IN-RJ,,West Bengal,,91,Asia/Kolkata
Surichua Air Base,24.18824,87.701722,Rampurhat,India,IN-WB,,Jharkhand,828202,91,Asia/Kolkata
Maithon Heliport,23.785,86.7935,Maithon,India,IN-JH,Durgapur,West Bengal,713200,91,Asia/Kolkata
Durgapur Steel Plant Airport,23.58331,87.339787,Durgapur,India,IN-WB,,Jharkhand,814101,91,Asia/Kolkata
Sido Kanhu Airport,24.231185,87.269989,Dumka,India,IN-JH,,Rajasthan,304022,91,Asia/Kolkata
Vanasthali Airport,26.407627,75.87012800000002,Vanasthali,India,IN-RJ,,Gujarat,,91,Asia/Kolkata
Mithapur Airport,22.412068,68.99363199999999,Mithapur,India,IN-GJ,,Maharashtra,,91,Asia/Kolkata
Sindhudurg Airport,16.002551999999998,73.52984599999998,Chipi-Parule,India,IN-MM,Jagdalpur,Chhattisgarh,494001,91,Asia/Kolkata
Jagdalpur Airport,19.07430076599121,82.03679656982422,Jagdalpur,India,IN-CT,,Tamil Nadu,607308,91,Asia/Kolkata
Neyveli Airport,11.6129560471,79.527381897,Neyveli,India,IN-TN,,Jammu and Kashmir,185131,91,Asia/Kolkata
Rajouri Airport,33.377899169921875,74.31520080566406,Rajouri,India,IN-JK,,Arunachal Pradesh,792001,91,Asia/Kolkata
Tezu Airport,27.9412002563,96.1343994141,Tezu,India,IN-AR,,Rajasthan,307001,91,Asia/Kolkata
Sirohi Airport,24.895099639892567,72.84590148925781,,India,IN-RJ,Jalgaon,Maharashtra,425001,91,Asia/Kolkata
Jalgaon Airport,20.962678,75.627492,Jalgaon,India,IN-MM,,Rajasthan,327022,91,Asia/Kolkata
Banswara Airport,23.58970069885254,74.31269836425781,,India,IN-RJ,,Maharashtra,424001,91,Asia/Kolkata
Dhulia Airport,20.9265,74.737099,,India,IN-MM,,Rajasthan,307026,91,Asia/Kolkata
Abu Road Airport,24.494199752807607,72.78150177001953,,India,IN-RJ,,Karnataka,583129,91,Asia/Kolkata
"Kopal,Hospet Airport",15.358334,76.51666999999998,Hospete,India,IN-KA,,Indiana,47906,1,Asia/Kolkata
Osmanabad Airport,18.281,76.0574,Osmanabad,India,IN-MM,رأس الخيمة,رأس الخيمة,,971,Asia/Kolkata
Chanda Airport,19.994699478149414,79.22250366210938,,India,IN-MM,Nagda,Madhya Pradesh,456300,91,Asia/Kolkata
Birlagram Airport,23.4468994140625,75.42030334472656,,India,IN-MP,,Uttar Pradesh,,91,Asia/Kolkata
Muirpur Airport,24.125200271606445,83.04060363769531,,India,IN-UP,,Chhattisgarh,490024,91,Asia/Kolkata
Bhilai Airport,21.2942008972168,81.37950134277344,,India,IN-CT,,Madhya Pradesh,486600,91,Asia/Kolkata
Sidhi Airport,24.402299880981445,81.8147964477539,,India,IN-MP,Rewa,Madhya Pradesh,486001,91,Asia/Kolkata
"Rewa Airport, Chorhata, REWA",24.503401,81.220299,Rewa,India,IN-MP,,Rajasthan,,91,Asia/Kolkata
Ondwa Airport,25.14150047302246,74.61150360107422,,India,IN-RJ,,Madhya Pradesh,,91,Asia/Kolkata
Dhana Airport,23.75359916687012,78.85579681396484,,India,IN-MP,,Kutch District,370660,91,Asia/Kolkata
Raedhanpur Airport,23.222299575805664,68.89129638671875,,India,IN-GJ,,Madhya Pradesh,460551,91,Asia/Kolkata
Amla Airport,21.92639923095703,78.11360168457031,,India,IN-MP,,Maharashtra,415100,91,Asia/Kolkata
Karad Airport,17.285900115966793,74.15809631347656,,India,IN-MM,Neemuch,Madhya Pradesh,458441,91,Asia/Kolkata
Nimach Airport,24.43079948425293,74.8677978515625,,India,IN-MP,,Madhya Pradesh,,91,Asia/Kolkata
Burhar Airport,23.23520088195801,81.50370025634766,,India,IN-MP,,Dadra and Nagar Haveli and Daman and Diu,,91,Asia/Kolkata
Diu Airport,20.71310043334961,70.92109680175781,Diu,India,IN-GJ,Petersburg,Virginia,23803,1,Asia/Kolkata
Phalodi Airport,27.11289978027344,72.38899993896484,,India,IN-RJ,Meerut,Uttar Pradesh,250001,91,Asia/Kolkata
Meerut Sw Airport,28.90489959716797,77.67729949951172,,India,IN-UP,,Maharashtra,481220,91,Asia/Kolkata
Gondia Airport,21.526817,80.290347,,India,IN-MM,,Madhya Pradesh,457001,91,Asia/Kolkata
Ratlam Airport,23.38139915466309,75.02559661865234,,India,IN-MP,,Virginia,22714,1,Asia/Kolkata
Sardar Vallabhbhai Patel International Airport,23.0771999359,72.63469696039998,Ahmedabad,India,IN-GJ,Akola,Maharashtra,444001,91,Asia/Kolkata
Akola Airport,20.698999,77.058601,Akola,India,IN-MM,Aurangabad,Maharashtra,431002,91,Asia/Kolkata
Aurangabad Airport,19.862699508666992,75.39810180664062,Aurangabad,India,IN-MM,Mumbai,Maharashtra,400 059,91,Asia/Kolkata
Chhatrapati Shivaji International Airport,19.088699340799998,72.8678970337,Mumbai,India,IN-MM,,Chhattisgarh,,91,Asia/Kolkata
Bilaspur Airport,21.9884,82.111,Bilaspur,India,IN-CT,Bhuj,Kutch District,370001,91,Asia/Kolkata
Bhuj Airport,23.2877998352,69.6701965332,Bhuj,India,IN-GJ,,Karnataka,591124,91,Asia/Kolkata
Belgaum Airport,15.8592996597,74.6183013916,Belgaum,India,IN-KA,Vadodara,Gujarat,390001,91,Asia/Kolkata
Vadodara Airport,22.33620100000001,73.226303,Vadodara,India,IN-GJ,Bhopal,Madhya Pradesh,462001,91,Asia/Kolkata
Raja Bhoj International Airport,23.2875003815,77.33740234380002,Bhopal,India,IN-MP,Bhavnagar,Gujarat,364001,91,Asia/Kolkata
Bhavnagar Airport,21.752199173,72.18520355220001,Bhavnagar,India,IN-GJ,,Dadra and Nagar Haveli and Daman and Diu,396210,91,Asia/Kolkata
Daman Airport,20.43440055847168,72.84320068359375,,India,IN-DD,Deesa,Gujarat,385500,91,Asia/Kolkata
Deesa Airport,24.267900466918945,72.20439910888672,,India,IN-GJ,Guna,Madhya Pradesh,473001,91,Asia/Kolkata
Guna Airport,24.654699,77.347298,,India,IN-MP,,Goa,403802,91,Asia/Kolkata
Dabolim Airport,15.3808002472,73.83139801029999,Vasco da Gama,India,IN-GA,Hubballi,Karnataka,580020,91,Asia/Kolkata
Hubli Airport,15.361700058,75.08489990230001,Hubli,India,IN-KA,Indore,Madhya Pradesh,452001,91,Asia/Kolkata
Devi Ahilyabai Holkar Airport,22.721799850500002,75.8011016846,Indore,India,IN-MP,,Madhya Pradesh,482005,91,Asia/Kolkata
Jabalpur Airport,23.17779922485352,80.052001953125,,India,IN-MP,Mumbai,Maharashtra,48335,91,Asia/Kolkata
Juhu Aerodrome,19.098100662231445,72.83419799804688,Mumbai,India,IN-MM,,Gujarat,361001,91,Asia/Kolkata
Jamnagar Airport,22.465499877929688,70.01260375976561,Jamnagar,India,IN-GJ,,Kutch District,370110,91,Asia/Kolkata
Kandla Airport,23.1127,70.10030400000001,Kandla,India,IN-GJ,,Madhya Pradesh,471606,91,Asia/Kolkata
Khajuraho Airport,24.817199706999997,79.91860198970001,Khajuraho,India,IN-MP,,Maharashtra,416004,91,Asia/Kolkata
Kolhapur Airport,16.664699554400002,74.2893981934,,India,IN-MM,,Gujarat,362220,91,Asia/Kolkata
Keshod Airport,21.317100524902344,70.27040100097656,,India,IN-GJ,Nanded-Waghala,Maharashtra,431600,91,Asia/Kolkata
Nanded Airport,19.1833000183,77.31670379639998,Nanded,India,IN-MM,Nagpur,Maharashtra,440001,91,Asia/Kolkata
Dr. Babasaheb Ambedkar International Airport,21.092199,79.047203,Nagpur,India,IN-MM,Nashik,Maharashtra,422001,91,Asia/Kolkata
Gandhinagar Airport,19.963699340799998,73.8076019287,Nashik,India,IN-MM,,Maharashtra,422206,91,Asia/Kolkata
Nashik Airport,20.119101,73.912903,Nasik,India,IN-MM,,Maharashtra,411014,91,Asia/Kolkata
Pune Airport,18.58209991455078,73.9197006225586,Pune,India,IN-MM,,Gujarat,,91,Asia/Kolkata
Porbandar Airport,21.6487007141,69.65720367429999,Porbandar,India,IN-GJ,,Maharashtra,415612,91,Asia/Kolkata
Ratnagiri Airport,17.013599,73.327797,,India,IN-MM,Rajkot,Gujarat,360001,91,Asia/Kolkata
Rajkot Airport,22.3092002869,70.77950286869998,Rajkot,India,IN-GJ,Raipur,Chhattisgarh,493332,91,Asia/Kolkata
Raipur Airport,21.180401,81.7388,Raipur,India,IN-CT,,Maharashtra,423109,91,Asia/Kolkata
Shirdi Airport,19.688611,74.378889,Shirdi,India,IN-MM,,Maharashtra,413004,91,Asia/Kolkata
Solapur Airport,17.6280002594,75.93479919430001,Solapur,India,IN-MM,,Gujarat,394320,91,Asia/Kolkata
Surat Airport,21.1140995026,72.7417984009,,India,IN-GJ,,Rajasthan,,91,Asia/Kolkata
Maharana Pratap Airport,24.617700576799997,73.89610290530001,Udaipur,India,IN-RJ,Harrisonburg,Virginia,22812,1,Asia/Kolkata
Burnpur Airport,23.631500244140625,86.97550201416016,,India,IN-WB,,Assam,786151,91,Asia/Kolkata
Sookerating Airport,27.55290031433105,95.5706024169922,,India,IN-AS,,Odisha,767029,91,Asia/Kolkata
Nuagaon Airport,20.511699676513672,83.4480972290039,,India,IN-OR,,Jharkhand,815301,91,Asia/Kolkata
Giridih Airport,24.20190048217773,86.28980255126953,,India,IN-BR,,West Bengal,735215,91,Asia/Kolkata
Hashimara Air Force Station,26.698299407958984,89.36910247802734,Jalpaiguri,India,IN-WB,,Jharkhand,822133,91,Asia/Kolkata
Daltonganj Airport,24.01930046081543,84.09510040283203,,India,IN-BR,,Odisha,754025,91,Asia/Kolkata
Cuttack Airport,20.54960060119629,85.88629913330078,,India,IN-OR,,Arunachal Pradesh,,91,Asia/Kolkata
Machuka Advanced Landing Ground,28.6024580064,94.1261386871,,India,IN-AR,,Madhya Pradesh,456664,91,Asia/Kolkata
Bentayan Airport,23.09510040283203,75.88529968261719,Ujjain,India,IN-MP,Darbhanga,Bihar,846004,91,Asia/Kolkata
Darbhanga Airport,26.192800521850586,85.91690063476562,,India,IN-BR,,Arunachal Pradesh,,91,Asia/Kolkata
Vijaynagar Advanced Landing Ground,27.193599700900002,97.0037002563,,India,IN-AR,Chhindwara,Madhya Pradesh,480001,91,Asia/Kolkata
Thuniabhand Airport,22.00160026550293,78.91719818115234,,India,IN-MP,,Arunachal Pradesh,791001,91,Asia/Kolkata
Along Airport,28.17530059814453,94.802001953125,,India,IN-AR,Agartala,Tripura,799001,91,Asia/Kolkata
Agartala Airport,23.8869991302,91.2404022217,Agartala,India,IN-TR,Aizawl,Mizoram,796190,91,Asia/Kolkata
Tuirial Airfield,23.7432,92.8024,Aizawl,India,IN-MZ,Kolkata,West Bengal,700034,91,Asia/Kolkata
Behala Airport,22.504230499267575,88.29342651367188,Behala,India,IN-WB,,West Bengal,,91,Asia/Kolkata
Bagdogra Airport,26.68120002746582,88.32859802246094,Siliguri,India,IN-WB,Balurghat,West Bengal,733101,91,Asia/Kolkata
Balurghat Airport,25.261699676513672,88.79560089111328,Balurghat,India,IN-WB,,Meghalaya,793103,91,Asia/Kolkata
Shillong Airport,25.70359992980957,91.97869873046876,Shillong,India,IN-ML,Bokaro,Jharkhand,827006,91,Asia/Kolkata
Bokaro Airport,23.64349937438965,86.1489028930664,,India,IN-BR,Bhubaneswar Municipal Corporation,Odisha,752010,91,Asia/Kolkata
Biju Patnaik Airport,20.2444000244,85.8178024292,Bhubaneswar,India,IN-OR,,Assam,786100,91,Asia/Kolkata
Chabua Air Force Station,27.462200164794922,95.1176986694336,Dibrugarh,India,IN-AS,Khardaha,West Bengal,700081,91,Asia/Kolkata
Netaji Subhash Chandra Bose International Airport,22.654699325561523,88.44670104980469,Kolkata,India,IN-WB,,Jharkhand,832300,91,Asia/Kolkata
Chakulia Airport,22.460599899291992,86.70780181884766,,India,IN-JH,,West Bengal,736101,91,Asia/Kolkata
Cooch Behar Airport,26.330499649,89.46720123290001,,India,IN-WB,,Jharkhand,828104,91,Asia/Kolkata
Dhanbad Airport,23.833999633789066,86.42530059814453,,India,IN-BR,,West Bengal,713363,91,Asia/Kolkata
Kazi Nazrul Islam Airport,23.6225,87.243,Durgapur,India,IN-WB,Kharagpur,West Bengal,721301,91,Asia/Kolkata
Kalaikunda Air Force Station,22.339500427246094,87.2145004272461,,India,IN-WB,,Arunachal Pradesh,791122,91,Asia/Kolkata
Daporijo Airport,27.985500335700003,94.22280120850002,Daporijo,India,IN-AR,Gorakhpur,Uttar Pradesh,273001,91,Asia/Kolkata
Gorakhpur Airport,26.739700317399997,83.44969940189999,Gorakhpur,India,IN-UP,,Assam,781013,91,Asia/Kolkata
Lokpriya Gopinath Bordoloi International Airport,26.10610008239746,91.58589935302734,Guwahati,India,IN-AS,Gaya,Bihar,823001,91,Asia/Kolkata
Gaya Airport,24.74430084228516,84.95120239257812,,India,IN-BR,,Odisha,,91,Asia/Kolkata
Hirakud Airport,21.5802001953125,84.00569915771484,Sambalpur,India,IN-OR,Imphal,Manipur,795001,91,Asia/Kolkata
Imphal Airport,24.760000228899997,93.896697998,Imphal,India,IN-MN,,Odisha,768200,91,Asia/Kolkata
Jharsuguda Airport,21.9135,84.0504,,India,IN-OR,,Odisha,764001,91,Asia/Kolkata
Jeypore Airport,18.8799991607666,82.552001953125,Jeypore,India,IN-OR,Jamshedpur,Jharkhand,831001,91,Asia/Kolkata
Sonari Airport,22.8132,86.1688,Jamshedpur,India,IN-JH,,Assam,785005,91,Asia/Kolkata
Jorhat Airport,26.7315006256,94.1754989624,Jorhat,India,IN-AS,,Odisha,758013,91,Asia/Kolkata
KEONJHAR AIRPORT,21.6966666667,85.58166666670002,,India,IN-OR,,Tripura,799286,91,Asia/Kolkata
Kamalpur Airport,24.13170051574707,91.81420135498048,,India,IN-TR,,Tripura,799264,91,Asia/Kolkata
Kailashahar Airport,24.30820083618164,92.0072021484375,,India,IN-TR,,Assam,788108,91,Asia/Kolkata
Silchar Airport,24.912900924699997,92.97869873049999,Silchar,India,IN-AS,,Tripura,799201,91,Asia/Kolkata
Khowai Airport,24.061899,91.603897,Khowai,India,IN-TR,,Mizoram,796410,91,Asia/Kolkata
Lengpui Airport,23.8405990601,92.6196975708,Aizawl,India,IN-MZ,,Assam,787001,91,Asia/Kolkata
North Lakhimpur Airport,27.295499801635746,94.09760284423828,Lilabari,India,IN-AS,Malda,West Bengal,732101,91,Asia/Kolkata
Malda Airport,25.033001,88.133003,Malda,India,IN-WB,Dibrugarh,Assam,786001,91,Asia/Kolkata
Dibrugarh Airport,27.4839000702,95.01689910889999,Dibrugarh,India,IN-AS,,Nagaland,797115,91,Asia/Kolkata
Dimapur Airport,25.883899688699998,93.77110290530001,Dimapur,India,IN-NL,,Bihar,842003,91,Asia/Kolkata
Muzaffarpur Airport,26.11910057067871,85.3136978149414,,India,IN-BR,,Odisha,766105,91,Asia/Kolkata
Nawapara Airport,20.8700008392334,82.51959991455078,Nawapara,India,IN-CT,,Arunachal Pradesh,791102,91,Asia/Kolkata
Pasighat Airport,28.06609916687012,95.33560180664062,Pasighat,India,IN-AR,,West Bengal,713212,91,Asia/Kolkata
Panagarh Air Force Station,23.474300384499998,87.42749786379999,,India,IN-WB,,West Bengal,700122,91,Asia/Kolkata
Barrackpore Air Force Station,22.7810001373,88.35919952389999,Barrackpore,India,IN-WB,Patna,Bihar,800001,91,Asia/Kolkata
Lok Nayak Jayaprakash Airport,25.591299056999997,85.08799743649999,Patna,India,IN-BR,,Bihar,,91,Asia/Kolkata
Purnea Airport,25.759599685668945,87.41000366210938,,India,IN-BR,,Jharkhand,834002,91,Asia/Kolkata
Birsa Munda Airport,23.31430053710001,85.3217010498,Ranchi,India,IN-JH,,Odisha,769004,91,Asia/Kolkata
Rourkela Airport,22.256701,84.814598,,India,IN-OR,,Bihar,845305,91,Asia/Kolkata
Raxaul Airport,26.96669960021973,84.83329772949219,,India,IN-BR,,Assam,,91,Asia/Kolkata
Rupsi India Airport,26.13969993591309,89.91000366210938,,India,IN-AS,,Assam,784501,91,Asia/Kolkata
Tezpur Airport,26.7091007232666,92.78469848632812,,India,IN-AS,,Odisha,766012,91,Asia/Kolkata
Utkela Airport,20.097400665283203,83.18379974365234,,India,IN-OR,,Andhra Pradesh,530027,91,Asia/Kolkata
Vishakhapatnam Airport,17.721201,83.224503,Visakhapatnam,India,IN-AP,,Arunachal Pradesh,791120,91,Asia/Kolkata
Ziro Airport,27.588301,93.828102,Ziro,India,IN-AR,,Virginia,23347,1,Asia/Kolkata
Bhilwara Airport,28.07710075378418,76.20500183105469,,India,IN-HR,,United States Virgin Islands,00803,1,Asia/Kolkata
Karnal Airport,29.714099884033203,77.0374984741211,,India,IN-HR,,Rajasthan,335804,91,Asia/Kolkata
Suratgarh New Airport,29.387800216674805,73.90390014648438,,India,IN-RJ,,Ladakh,194401,91,Asia/Kolkata
Thoise Airport,34.652599334716804,77.37580108642578,,India,IN-JK,,Ladakh,194103,91,Asia/Kolkata
Kargil Airport,34.5242996216,76.15589904790002,,India,IN-JK,,Ladakh,,91,Asia/Kolkata
Fukche Advanced Landing Ground,32.93740081787109,79.21320343017578,,India,IN-JK,Jhunjhunu,Rajasthan,333001,91,Asia/Kolkata
Jhunjhunu Airport,28.1067008972168,75.37560272216797,,India,IN-RJ,,Rajasthan,333031,91,Asia/Kolkata
Pilani New Airport,28.34880065917969,75.59369659423828,,India,IN-RJ,,Haryana,134102,91,Asia/Kolkata
Kalka Airport,30.82456970214844,76.88365173339844,,India,IN-HR,,Rajasthan,,91,Asia/Kolkata
Nagaur Airport,27.20829963684082,73.7114028930664,,India,IN-RJ,Kanpur,Uttar Pradesh,208012,91,Asia/Kolkata
IIT Kanpur Airport,26.520399,80.232904,Kalyanpur,India,IN-UP,,Madhya Pradesh,,91,Asia/Kolkata
Band Tal Airport,26.000099182128906,78.26180267333984,,India,IN-MP,,Uttarakhand,249196,91,Asia/Kolkata
Bharkot Airport,30.58289909362793,78.32340240478516,,India,IN-UP,,Punjab,143201,91,Asia/Kolkata
Jallowal Airport,31.559999465942386,75.34130096435547,,India,IN-PB,Akbarpur,Uttar Pradesh,224122,91,Asia/Kolkata
Akbarpur Airport,26.447599411010746,82.56819915771484,,India,IN-UP,Agra,Uttar Pradesh,282010,91,Asia/Kolkata
Agra Airport,27.155799865722656,77.96089935302734,,India,IN-UP,Aligarh,Uttar Pradesh,202001,91,Asia/Kolkata
Dhanipur Airstrip,27.860856311,78.14686775210002,Aligarth,India,IN-UP,Prayagraj,Uttar Pradesh,211001,91,Asia/Kolkata
Allahabad Airport,25.4401,81.733902,Allahabad,India,IN-UP,Ambala,Haryana,134002,91,Asia/Kolkata
Ambala Air Force Station,30.368099212646484,76.81670379638672,,India,IN-HR,,Punjab,143101,91,Asia/Kolkata
Sri Guru Ram Dass Jee International Airport,31.7096004486,74.7973022461,Amritsar,India,IN-PB,,Jammu and Kashmir,192124,91,Asia/Kolkata
Awantipur Air Force Station,33.876598358154304,74.97570037841797,,India,IN-JK,,Punjab,,91,Asia/Kolkata
Adampur Airport,31.4338,75.758797,Adampur,India,IN-PB,Ciudad Constitución,Baja California Sur,23600,52,Asia/Kolkata
Nal Airport,28.070600509643555,73.20719909667969,Bikaner,India,IN-RJ,,Uttar Pradesh,,91,Asia/Kolkata
Bakshi Ka Talab Air Force Station,26.988300323486328,80.89309692382812,Lucknow,India,IN-UP,,Uttar Pradesh,221006,91,Asia/Kolkata
Lal Bahadur Shastri Airport,25.4524,82.859299,Varanasi,India,IN-UP,,Himachal Pradesh,175125,91,Asia/Kolkata
Kullu Manali Airport,31.87669944763184,77.15440368652344,,India,IN-HP,,Punjab,,91,Asia/Kolkata
Bhatinda Air Force Station,30.270099639892567,74.75579833984375,,India,IN-PB,Bhiwani,Haryana,125021,91,Asia/Kolkata
Bhiwani Airport,28.83699989318848,76.1791000366211,,India,IN-HR,,Uttar Pradesh,243202,91,Asia/Kolkata
Bareilly Air Force Station,28.4221000671,79.45079803470001,Bareilly,India,IN-UP,Chandigarh,,140603,91,Asia/Kolkata
Chandigarh Airport,30.67350006103516,76.78849792480469,Chandigarh,India,IN-CH,,Uttar Pradesh,208010,91,Asia/Kolkata
Kanpur Airport,26.404301,80.410103,Kanpur,India,IN-UP,New Delhi,Delhi,110003,91,Asia/Kolkata
Safdarjung Airport,28.58449935913086,77.20580291748047,,India,IN-DL,,Uttarakhand,262500,91,Asia/Kolkata
Pithorgarh Airport,29.59359931945801,80.23919677734375,,India,IN-UP,,Uttarakhand,248016,91,Asia/Kolkata
Dehradun Airport,30.189699,78.180298,Dehradun,India,IN-UL,New Delhi,Delhi,110037,91,Asia/Kolkata
Indira Gandhi International Airport,28.5665,77.103104,New Delhi,India,IN-DL,,Delhi,201001,91,Asia/Kolkata
Hindon Air Force Station,28.70770072937012,77.35890197753906,,India,IN-UP,,Puglia,71019,39,Asia/Kolkata
Kangra Airport,32.16510009765625,76.26339721679688,,India,IN-HP,Gwalior,Madhya Pradesh,474001,91,Asia/Kolkata
Gwalior Airport,26.29330062866211,78.22779846191406,Gwalior,India,IN-MP,Hisar,Haryana,125001,91,Asia/Kolkata
Hissar Airport,29.179399490356445,75.75530242919922,,India,IN-HR,,Punjab,141107,91,Asia/Kolkata
Halwara Air Force Station,30.74850082397461,75.62979888916016,,India,IN-PB,,Uttar Pradesh,284001,91,Asia/Kolkata
Jhansi Airport,25.491199493408203,78.55840301513672,,India,IN-UP,Jodhpur,Rajasthan,342011,91,Asia/Kolkata
Jodhpur Airport,26.25110054016113,73.04889678955078,Jodhpur,India,IN-RJ,Jaipur Municipal Corporation,Rajasthan,303902,91,Asia/Kolkata
Jaipur International Airport,26.8242,75.812202,Jaipur,India,IN-RJ,,Rajasthan,345001,91,Asia/Kolkata
Jaisalmer Airport,26.88870048522949,70.86499786376953,,India,IN-RJ,Jammu,Jammu and Kashmir,180003,91,Asia/Kolkata
Jammu Airport,32.6890983582,74.83740234380002,Jammu,India,IN-JK,Kanpur,Uttar Pradesh,208012,91,Asia/Kolkata
Kanpur Civil Airport,26.44140100000001,80.364899,Kanpur,India,IN-UP,,Rajasthan,305802,91,Asia/Kolkata
Kishangarh Airport,26.601473,74.81414699999998,Ajmer,India,IN-RJ,Kota,Rajasthan,324001,91,Asia/Kolkata
Kota Airport,25.160200119000002,75.84559631350001,Kota,India,IN-RJ,,Punjab,141016,91,Asia/Kolkata
Ludhiana Airport,30.854700088500977,75.95259857177734,,India,IN-PB,Leh,Ladakh,0194101,91,Asia/Kolkata
Leh Kushok Bakula Rimpochee Airport,34.135898590100005,77.5465011597,Leh,India,IN-JK,,Uttar Pradesh,226012,91,Asia/Kolkata
Chaudhary Charan Singh International Airport,26.7605991364,80.8892974854,Lucknow,India,IN-UP,Lalitpur,Uttar Pradesh,284403,91,Asia/Kolkata
Lalitpur Airport,24.716999053955078,78.41699981689453,Lalitpur,India,IN-UP,Pathankot,Punjab,145001,91,Asia/Kolkata
Pathankot Airport,32.233611,75.63444399999999,Pathankot,India,IN-PB,Patiala,Punjab,147001,91,Asia/Kolkata
Patiala Airport,30.314800262451172,76.364501953125,,India,IN-PB,Rudrapur,Uttarakhand,263153,91,Asia/Kolkata
Pantnagar Airport,29.0334,79.473701,Pantnagar,India,IN-UP,Rae Bareli,Uttar Pradesh,,91,Asia/Kolkata
Fursatganj Airport,26.248501,81.380501,,India,IN-UP,Sirsa,Haryana,125055,91,Asia/Kolkata
Sirsa Air Force Station,29.56060028076172,75.006103515625,,India,IN-HR,,Himachal Pradesh,173207,91,Asia/Kolkata
Shimla Airport,31.0818,77.068001,,India,IN-HP,Saharanpur,Uttar Pradesh,247001,91,Asia/Kolkata
Sarsawa Air Force Station,29.993900299072266,77.42530059814453,,India,IN-UP,,Jammu and Kashmir,190014,91,Asia/Kolkata
Sheikh ul Alam Airport,33.987098693847656,74.77420043945312,Srinagar,India,IN-JK,,Madhya Pradesh,485005,91,Asia/Kolkata
Satna Airport,24.5623,80.854897,,India,IN-MP,,Rajasthan,,91,Asia/Kolkata
Uttarlai Airport,25.8129997253418,71.4822998046875,,India,IN-RJ,,Jammu and Kashmir,182101,91,Asia/Kolkata
Udhampur Air Force Station,32.902198791503906,75.15619659423828,,India,IN-JK,,Milne Bay,,675,Asia/Kolkata
Kovilpatti Airport,9.153889656066896,77.82119750976562,,India,IN-TN,,Karnataka,581123,91,Asia/Kolkata
Harihar Airport,14.535099983199999,75.787399292,,India,IN-KA,,Maharashtra,413512,91,Asia/Kolkata
Murod Kond Airport,18.411501,76.464699,Latur,India,IN-MM,,Tamil Nadu,628103,91,Asia/Kolkata
Tuticorin Airport,8.724241000000001,78.025803,Thoothukudi,India,IN-TN,,Andaman and Nicobar Islands,,91,Asia/Kolkata
Campbell Bay Airport,7.013040065765381,93.92279815673828,,India,IN-AN,,Tamil Nadu,635110,91,Asia/Kolkata
Hosur Airport,12.661299705505373,77.76719665527344,,India,IN-TN,,Tamil Nadu,631001,91,Asia/Kolkata
Arkonam Airport,13.0712003708,79.69120025630002,,India,IN-TN,,Lakshadweep,,91,Asia/Kolkata
Agatti Airport,10.823699951171877,72.1760025024414,,India,IN-LD,Bengaluru,Karnataka,560103,91,Asia/Kolkata
HAL Airport,12.949999809300001,77.6681976318,Bangalore,India,IN-KA,Ballari,Karnataka,5831XX,91,Asia/Kolkata
Bellary Airport,15.162799835205078,76.88279724121094,Bellary,India,IN-KA,,Karnataka,560300,91,Asia/Kolkata
Kempegowda International Airport,13.1979,77.706299,Bangalore,India,IN-KA,Bidar,Karnataka,585400,91,Asia/Kolkata
Bidar Air Force Station,17.9081,77.487099,,India,IN-KA,,Andhra Pradesh,521101,91,Asia/Kolkata
Vijayawada Airport,16.530399,80.796799,Gannavaram,India,IN-AP,,Tamil Nadu,641062,91,Asia/Kolkata
Coimbatore International Airport,11.029999733,77.0434036255,Coimbatore,India,IN-TN,Kochi,Kerala,628002,91,Asia/Kolkata
Willingdon Island Air Base,9.947389602661133,76.27310180664062,Kochi,India,IN-KL,,Kerala,683575,91,Asia/Kolkata
Cochin International Airport,10.152,76.401901,Kochi,India,IN-KL,,Kerala,673635,91,Asia/Kolkata
Calicut International Airport,11.1367998123,75.95529937740001,Calicut,India,IN-KL,,Andhra Pradesh,516162,91,Asia/Kolkata
Kadapa Airport,14.51,78.772778,Kadapa,India,IN-AP,,Andaman and Nicobar Islands,,91,Asia/Kolkata
Car Nicobar Air Force Station,9.152509689331056,92.8196029663086,,India,IN-AN,,Telangana,502313,91,Asia/Kolkata
Dundigul Air Force Academy,17.627199173,78.40339660640001,Hyderabad,India,IN-TG,,Andhra Pradesh,,91,Asia/Kolkata
Dunakonda Airport,15.8063,79.4882,Dunakonda,India,IN-AP,,Telangana,500010,91,Asia/Kolkata
Hakimpet Airport,17.5534992218,78.52490234380002,,India,IN-TG,,Telangana,,91,Asia/Kolkata
Rajiv Gandhi International Airport,17.231317999999998,78.429855,Hyderabad,India,IN-TG,,Telangana,500003,91,Asia/Kolkata
Begumpet Airport,17.4531002045,78.4675979614,Hyderabad,India,IN-TG,,Kerala,670612,91,Asia/Kolkata
Kannur International Airport,11.918614,75.547211,Kannur,India,IN-KL,,Karnataka,583228,91,Asia/Kolkata
Koppal Aerodrome,15.359100341796875,76.21929931640625,Koppal,India,IN-KA,,Tamil Nadu,625012,91,Asia/Kolkata
Madurai Airport,9.83450984955,78.09339904790002,Madurai,India,IN-TN,,Karnataka,574142,91,Asia/Kolkata
Mangalore International Airport,12.961299896199998,74.89009857180001,Mangalore,India,IN-KA,St. Thomas Mount Cantonment,Tamil Nadu,600 061,91,Asia/Kolkata
Chennai International Airport,12.990005493164062,80.16929626464844,Chennai,India,IN-TN,,Karnataka,570004,91,Asia/Kolkata
Mysore Airport,12.23,76.655833,Mysore,India,IN-KA,,Andhra Pradesh,522439,91,Asia/Kolkata
Nagarjuna Sagar Airport,16.542699813842773,79.3187026977539,,India,IN-AP,Port Blair,Andaman and Nicobar Islands,744103,91,Asia/Kolkata
Vir Savarkar International Airport,11.641200065612793,92.72969818115234,Port Blair,India,IN-AN,,Puducherry,605008,91,Asia/Kolkata
Pondicherry Airport,11.968,79.812,Pondicherry,India,IN-TN,,Andhra Pradesh,515134,91,Asia/Kolkata
Sri Sathya Sai Airport,14.1492996216,77.7910995483,Puttaparthi,India,IN-AP,,Telangana,505187,91,Asia/Kolkata
Basanth Nagar Airport,18.701,79.3923,Ramagundam,India,IN-TG,,Tamil Nadu,623522,91,Asia/Kolkata
Ramnad Naval Air Station,9.32509040833,78.971496582,Ramnad,India,IN-TN,,Andhra Pradesh,533289,91,Asia/Kolkata
Rajahmundry Airport,17.1103992462,81.81819915770001,Rajahmundry,India,IN-AP,,Tamil Nadu,636455,91,Asia/Kolkata
Salem Airport,11.78330039978,78.06559753418,Salem,India,IN-TN,,Tamil Nadu,641401,91,Asia/Kolkata
Coimbatore Air Force Station,11.01360034942627,77.15969848632812,Sulur,India,IN-TN,,Tamil Nadu,613005,91,Asia/Kolkata
Tanjore Air Force Base,10.722399711608887,79.10160064697266,Thanjavur,India,IN-TN,,Andhra Pradesh,517520,91,Asia/Kolkata
Tirupati Airport,13.632499694800005,79.543296814,Tirupati,India,IN-AP,Trichy Corporation Limits,Tamil Nadu,620020,91,Asia/Kolkata
Tiruchirapally Civil Airport Airport,10.765399932861328,78.70970153808594,Tiruchirappally,India,IN-TN,Thiruvananthapuram,Kerala,695001,91,Asia/Kolkata
Trivandrum International Airport,8.48211956024,76.9200973511,Thiruvananthapuram,India,IN-KL,Tambaram,Tamil Nadu,600045,91,Asia/Kolkata
Tambaram Air Force Station,12.90719985961914,80.12190246582031,Chennai,India,IN-TN,Vellore,Tamil Nadu,632010,91,Asia/Kolkata
Vellore Airport,12.90880012512207,79.06680297851562,Vellore,India,IN-TN,,Telangana,506166,91,Asia/Kolkata
Warangal Airport,17.9144,79.602203,Warangal,India,IN-TG,Bengaluru,Karnataka,562157,91,Asia/Kolkata
Yelahanka Air Force Station,13.135499954223633,77.60600280761719,Yelahanka,India,IN-KA,,བཀྲ་ཤིས་སྒང་རྫོང་ཁག་,,975,Asia/Kolkata
